<?xml version='1.0' encoding='utf-8'?>
<kml xmlns="http://www.opengis.net/kml/2.2"><Document><name>Sideways-left snapshots 10:15:52.678 and 10:15:57.682</name><Style id="shore"><LineStyle><color>ffffff00</color><width>3</width></LineStyle><IconStyle><color>ffffff00</color><scale>1.1</scale></IconStyle></Style><Style id="first"><LineStyle><color>ff00ffff</color><width>3</width></LineStyle><IconStyle><color>ff00ffff</color><scale>1.1</scale></IconStyle></Style><Style id="second"><LineStyle><color>ff0000ff</color><width>3</width></LineStyle><IconStyle><color>ff0000ff</color><scale>1.1</scale></IconStyle></Style><Style id="drone"><LineStyle><color>ffff8000</color><width>3</width></LineStyle><IconStyle><color>ffff8000</color><scale>1.1</scale></IconStyle></Style><Placemark><name>Shoreline A</name><styleUrl>#shore</styleUrl><description /><Point><coordinates>153.42908999999997,-27.952459999999995,0</coordinates></Point></Placemark><Placemark><name>Shoreline B</name><styleUrl>#shore</styleUrl><description /><Point><coordinates>153.42911000000004,-27.9531,0</coordinates></Point></Placemark><Placemark><name>Selected shoreline mainb</name><styleUrl>#shore</styleUrl><description>Configured sea side: leftOfAToB. Orientation not independently verified.</description><LineString><tessellate>1</tessellate><coordinates>153.42908999999997,-27.952459999999995,0 153.42911000000004,-27.9531,0</coordinates></LineString></Placemark><Folder><name>10:15:52.678 snapshot</name><Placemark><name>Drone 10:15:52.678</name><styleUrl>#drone</styleUrl><description>Frame 2026-10-04 10:15:52.678; telemetry 2026-10-04T10:15:52.691+10:00; offset 13.0 ms. GPS age 7 ms. Ground-projected points; visible surfer position not measured.</description><Point><coordinates>153.43061401474083,-27.952374636243455,0</coordinates></Point></Placemark><Placemark><name>Surfer GPS 10:15:52.678</name><styleUrl>#first</styleUrl><description>Frame 2026-10-04 10:15:52.678; telemetry 2026-10-04T10:15:52.691+10:00; offset 13.0 ms. GPS age 7 ms. Ground-projected points; visible surfer position not measured.</description><Point><coordinates>153.43064,-27.9526,0</coordinates></Point></Placemark><Placemark><name>Separation 25.19 m - 10:15:52.678</name><styleUrl>#first</styleUrl><description>Frame 2026-10-04 10:15:52.678; telemetry 2026-10-04T10:15:52.691+10:00; offset 13.0 ms. GPS age 7 ms. Ground-projected points; visible surfer position not measured.</description><LineString><tessellate>1</tessellate><coordinates>153.43061401474083,-27.952374636243455,0 153.43064,-27.9526,0</coordinates></LineString></Placemark><Placemark><name>Drone heading 178.3 deg - 10:15:52.678</name><styleUrl>#drone</styleUrl><description>GPS bearing 174.18 deg; relative bearing -4.12 deg</description><LineString><tessellate>1</tessellate><coordinates>153.43061401474083,-27.952374636243455,0 153.43062609596396,-27.9527342065549,0</coordinates></LineString></Placemark></Folder><Folder><name>10:15:57.682 snapshot</name><Placemark><name>Drone 10:15:57.682</name><styleUrl>#drone</styleUrl><description>Frame 2026-10-04 10:15:57.682; telemetry 2026-10-04T10:15:57.714+10:00; offset 32.0 ms. GPS age 2027 ms. Ground-projected points; visible surfer position not measured.</description><Point><coordinates>153.43061339295727,-27.95237458777166,0</coordinates></Point></Placemark><Placemark><name>Surfer GPS 10:15:57.682</name><styleUrl>#second</styleUrl><description>Frame 2026-10-04 10:15:57.682; telemetry 2026-10-04T10:15:57.714+10:00; offset 32.0 ms. GPS age 2027 ms. Ground-projected points; visible surfer position not measured.</description><Point><coordinates>153.43062,-27.9526,0</coordinates></Point></Placemark><Placemark><name>Separation 25.07 m - 10:15:57.682</name><styleUrl>#second</styleUrl><description>Frame 2026-10-04 10:15:57.682; telemetry 2026-10-04T10:15:57.714+10:00; offset 32.0 ms. GPS age 2027 ms. Ground-projected points; visible surfer position not measured.</description><LineString><tessellate>1</tessellate><coordinates>153.43061339295727,-27.95237458777166,0 153.43062,-27.9526,0</coordinates></LineString></Placemark><Placemark><name>Drone heading 174.5 deg - 10:15:57.682</name><styleUrl>#drone</styleUrl><description>GPS bearing 178.52 deg; relative bearing 4.02 deg</description><LineString><tessellate>1</tessellate><coordinates>153.43061339295727,-27.95237458777166,0 153.4306524249938,-27.952732660294718,0</coordinates></LineString></Placemark></Folder></Document></kml>