<?xml version='1.0' encoding='utf-8'?>
<kml xmlns="http://www.opengis.net/kml/2.2"><Document><name>VT sideways-left - 10:04:16.487</name><Style id="shore"><LineStyle><color>ffffff00</color><width>3</width></LineStyle><IconStyle><color>ffffff00</color><scale>1.2</scale></IconStyle></Style><Style id="drone"><LineStyle><color>ffff8000</color><width>3</width></LineStyle><IconStyle><color>ffff8000</color><scale>1.2</scale></IconStyle></Style><Style id="surfer"><LineStyle><color>ff00ffff</color><width>3</width></LineStyle><IconStyle><color>ff00ffff</color><scale>1.2</scale></IconStyle></Style><Style id="heading"><LineStyle><color>ff00ff00</color><width>3</width></LineStyle><IconStyle><color>ff00ff00</color><scale>1.2</scale></IconStyle></Style><Style id="bearing"><LineStyle><color>ff00ffff</color><width>3</width></LineStyle><IconStyle><color>ff00ffff</color><scale>1.2</scale></IconStyle></Style><Placemark><name>Shoreline A</name><styleUrl>#shore</styleUrl><description /><Point><coordinates>153.42909,-27.95246,0</coordinates></Point></Placemark><Placemark><name>Shoreline B</name><styleUrl>#shore</styleUrl><description /><Point><coordinates>153.42911,-27.9531,0</coordinates></Point></Placemark><Placemark><name>Selected shoreline mainb</name><styleUrl>#shore</styleUrl><description>Configured sea side: left of A to B; east. Orientation not independently verified.</description><LineString><tessellate>1</tessellate><coordinates>153.42909,-27.95246,0 153.42911,-27.9531,0</coordinates></LineString></Placemark><Placemark><name>Drone 10:04:16.463</name><styleUrl>#drone</styleUrl><description>Heading 170.9 deg; telemetry 24 ms before video frame. Ground-projected position.</description><Point><coordinates>153.4307213143807,-27.952617402550402,0</coordinates></Point></Placemark><Placemark><name>Surfer LoRa GPS</name><styleUrl>#surfer</styleUrl><description>GPS age 269 ms. GPS position, not a visually measured surfer position.</description><Point><coordinates>153.43079,-27.95291,0</coordinates></Point></Placemark><Placemark><name>Drone to surfer GPS: 33.23 m</name><styleUrl>#bearing</styleUrl><description>Bearing 168.29 deg; relative bearing -2.61 deg.</description><LineString><tessellate>1</tessellate><coordinates>153.4307213143807,-27.952617402550402,0 153.43079,-27.95291,0</coordinates></LineString></Placemark><Placemark><name>Drone heading 170.90 deg</name><styleUrl>#heading</styleUrl><description /><LineString><tessellate>1</tessellate><coordinates>153.4307213143807,-27.952617402550402,0 153.43079377352288,-27.953017003707078,0</coordinates></LineString></Placemark><Placemark><name>Configured seaward direction 88.42 deg</name><styleUrl>#heading</styleUrl><description /><LineString><tessellate>1</tessellate><coordinates>153.4291,-27.952779999999997,0 153.4296088556293,-27.952767592239145,0</coordinates></LineString></Placemark></Document></kml>