<?xml version='1.0' encoding='utf-8'?>
<kml xmlns="http://www.opengis.net/kml/2.2"><Document><name>VT 4.0.5 — route around blocked boundary passage</name><description>Hypothetical geometry matching the user sketch, not recorded flight coordinates. S0 is retained as map origin; drone and P3 are illustrative. Boundary runs north-south 24 m east of S0, west permitted. 25 m clearance circle overlaps boundary by 1 m. Magenta proposed route uses west side. Ground-clamped horizontal geometry; not an implemented or flown route.</description><Style id="route"><LineStyle><color>ffff00ff</color><width>5</width></LineStyle><IconStyle><color>ffff00ff</color><Icon><href>https://maps.google.com/mapfiles/kml/shapes/placemark_circle.png</href></Icon></IconStyle></Style><Style id="boundary"><LineStyle><color>ff0000ff</color><width>4</width></LineStyle><IconStyle><color>ff0000ff</color><Icon><href>https://maps.google.com/mapfiles/kml/shapes/placemark_circle.png</href></Icon></IconStyle></Style><Style id="circle"><LineStyle><color>ff00ffff</color><width>3</width></LineStyle><IconStyle><color>ff00ffff</color><Icon><href>https://maps.google.com/mapfiles/kml/shapes/placemark_circle.png</href></Icon></IconStyle></Style><Style id="green"><LineStyle><color>ff00ff00</color><width>3</width></LineStyle><IconStyle><color>ff00ff00</color><Icon><href>https://maps.google.com/mapfiles/kml/shapes/placemark_circle.png</href></Icon></IconStyle></Style><Placemark><name>RED boundary — WEST / left side permitted</name><description>Hypothetical central boundary; circle overlaps it by 1 m. The complete magenta route stays west of this line.</description><styleUrl>#boundary</styleUrl><LineString><tessellate>1</tessellate><coordinates>153.407774652523,-28.088120474876,0 153.407774652523,-28.089379525124,0</coordinates></LineString></Placemark><Placemark><name>Boundary anchor — hypothetical central point</name><description /><styleUrl>#boundary</styleUrl><Point><coordinates>153.407774652523,-28.088255373117,0</coordinates></Point></Placemark><Placemark><name>Permitted direction</name><description /><styleUrl>#green</styleUrl><LineString><tessellate>1</tessellate><coordinates>153.407774652523,-28.088255373117,0 153.407377092173,-28.088255373117,0</coordinates></LineString></Placemark><Placemark><name>S0 — captured surfer</name><description /><styleUrl>#green</styleUrl><Point><coordinates>153.407530000000,-28.088750000000,0</coordinates></Point></Placemark><Placemark><name>25 m clearance circle</name><description>25 m retreat threshold, zero extra path buffer, centred on captured S0.</description><styleUrl>#circle</styleUrl><LineString><tessellate>1</tessellate><coordinates>153.407530000000,-28.088525169599,0 153.407538894010,-28.088525306559,0 153.407547777185,-28.088525717274,0 153.407556638700,-28.088526401243,0 153.407565467761,-28.088527357633,0 153.407574253609,-28.088528585278,0 153.407582985541,-28.088530082682,0 153.407591652919,-28.088531848022,0 153.407600245182,-28.088533879147,0 153.407608751862,-28.088536173582,0 153.407617162595,-28.088538728531,0 153.407625467134,-28.088541540882,0 153.407633655360,-28.088544607208,0 153.407641717299,-28.088547923774,0 153.407649643127,-28.088551486538,0 153.407657423189,-28.088555291161,0 153.407665048005,-28.088559333006,0 153.407672508286,-28.088563607150,0 153.407679794943,-28.088568108384,0 153.407686899097,-28.088572831226,0 153.407693812094,-28.088577769920,0 153.407700525512,-28.088582918451,0 153.407707031170,-28.088588270544,0 153.407713321143,-28.088593819680,0 153.407719387767,-28.088599559097,0 153.407725223652,-28.088605481804,0 153.407730821686,-28.088611580583,0 153.407736175051,-28.088617848006,0 153.407741277223,-28.088624276435,0 153.407746121986,-28.088630858039,0 153.407750703438,-28.088637584799,0 153.407755015996,-28.088644448520,0 153.407759054407,-28.088651440839,0 153.407762813751,-28.088658553237,0 153.407766289447,-28.088665777049,0 153.407769477261,-28.088673103474,0 153.407772373309,-28.088680523585,0 153.407774974062,-28.088688028343,0 153.407777276352,-28.088695608603,0 153.407779277373,-28.088703255131,0 153.407780974689,-28.088710958610,0 153.407782366231,-28.088718709656,0 153.407783450303,-28.088726498824,0 153.407784225585,-28.088734316624,0 153.407784691133,-28.088742153532,0 153.407784846378,-28.088750000000,0 153.407784691133,-28.088757846468,0 153.407784225585,-28.088765683376,0 153.407783450303,-28.088773501176,0 153.407782366231,-28.088781290344,0 153.407780974689,-28.088789041390,0 153.407779277373,-28.088796744869,0 153.407777276352,-28.088804391397,0 153.407774974062,-28.088811971657,0 153.407772373309,-28.088819476415,0 153.407769477261,-28.088826896526,0 153.407766289447,-28.088834222951,0 153.407762813751,-28.088841446763,0 153.407759054407,-28.088848559161,0 153.407755015996,-28.088855551480,0 153.407750703438,-28.088862415201,0 153.407746121986,-28.088869141961,0 153.407741277223,-28.088875723565,0 153.407736175051,-28.088882151994,0 153.407730821686,-28.088888419417,0 153.407725223652,-28.088894518196,0 153.407719387767,-28.088900440903,0 153.407713321143,-28.088906180320,0 153.407707031170,-28.088911729456,0 153.407700525512,-28.088917081549,0 153.407693812094,-28.088922230080,0 153.407686899097,-28.088927168774,0 153.407679794943,-28.088931891616,0 153.407672508286,-28.088936392850,0 153.407665048005,-28.088940666994,0 153.407657423189,-28.088944708839,0 153.407649643127,-28.088948513462,0 153.407641717299,-28.088952076226,0 153.407633655360,-28.088955392792,0 153.407625467134,-28.088958459118,0 153.407617162595,-28.088961271469,0 153.407608751862,-28.088963826418,0 153.407600245182,-28.088966120853,0 153.407591652919,-28.088968151978,0 153.407582985541,-28.088969917318,0 153.407574253609,-28.088971414722,0 153.407565467761,-28.088972642367,0 153.407556638700,-28.088973598757,0 153.407547777185,-28.088974282726,0 153.407538894010,-28.088974693441,0 153.407530000000,-28.088974830401,0 153.407521105990,-28.088974693441,0 153.407512222815,-28.088974282726,0 153.407503361300,-28.088973598757,0 153.407494532239,-28.088972642367,0 153.407485746391,-28.088971414722,0 153.407477014459,-28.088969917318,0 153.407468347081,-28.088968151978,0 153.407459754818,-28.088966120853,0 153.407451248138,-28.088963826418,0 153.407442837405,-28.088961271469,0 153.407434532866,-28.088958459118,0 153.407426344640,-28.088955392792,0 153.407418282701,-28.088952076226,0 153.407410356873,-28.088948513462,0 153.407402576811,-28.088944708839,0 153.407394951995,-28.088940666994,0 153.407387491714,-28.088936392850,0 153.407380205057,-28.088931891616,0 153.407373100903,-28.088927168774,0 153.407366187906,-28.088922230080,0 153.407359474488,-28.088917081549,0 153.407352968830,-28.088911729456,0 153.407346678857,-28.088906180320,0 153.407340612233,-28.088900440903,0 153.407334776348,-28.088894518196,0 153.407329178314,-28.088888419417,0 153.407323824949,-28.088882151994,0 153.407318722777,-28.088875723565,0 153.407313878014,-28.088869141961,0 153.407309296562,-28.088862415201,0 153.407304984004,-28.088855551480,0 153.407300945593,-28.088848559161,0 153.407297186249,-28.088841446763,0 153.407293710553,-28.088834222951,0 153.407290522739,-28.088826896526,0 153.407287626691,-28.088819476415,0 153.407285025938,-28.088811971657,0 153.407282723648,-28.088804391397,0 153.407280722627,-28.088796744869,0 153.407279025311,-28.088789041390,0 153.407277633769,-28.088781290344,0 153.407276549697,-28.088773501176,0 153.407275774415,-28.088765683376,0 153.407275308867,-28.088757846468,0 153.407275153622,-28.088750000000,0 153.407275308867,-28.088742153532,0 153.407275774415,-28.088734316624,0 153.407276549697,-28.088726498824,0 153.407277633769,-28.088718709656,0 153.407279025311,-28.088710958610,0 153.407280722627,-28.088703255131,0 153.407282723648,-28.088695608603,0 153.407285025938,-28.088688028343,0 153.407287626691,-28.088680523585,0 153.407290522739,-28.088673103474,0 153.407293710553,-28.088665777049,0 153.407297186249,-28.088658553237,0 153.407300945593,-28.088651440839,0 153.407304984004,-28.088644448520,0 153.407309296562,-28.088637584799,0 153.407313878014,-28.088630858039,0 153.407318722777,-28.088624276435,0 153.407323824949,-28.088617848006,0 153.407329178314,-28.088611580583,0 153.407334776348,-28.088605481804,0 153.407340612233,-28.088599559097,0 153.407346678857,-28.088593819680,0 153.407352968830,-28.088588270544,0 153.407359474488,-28.088582918451,0 153.407366187906,-28.088577769920,0 153.407373100903,-28.088572831226,0 153.407380205057,-28.088568108384,0 153.407387491714,-28.088563607150,0 153.407394951995,-28.088559333006,0 153.407402576811,-28.088555291161,0 153.407410356873,-28.088551486538,0 153.407418282701,-28.088547923774,0 153.407426344640,-28.088544607208,0 153.407434532866,-28.088541540882,0 153.407442837405,-28.088538728531,0 153.407451248138,-28.088536173582,0 153.407459754818,-28.088533879147,0 153.407468347081,-28.088531848022,0 153.407477014459,-28.088530082682,0 153.407485746391,-28.088528585278,0 153.407494532239,-28.088527357633,0 153.407503361300,-28.088526401243,0 153.407512222815,-28.088525717274,0 153.407521105990,-28.088525306559,0 153.407530000000,-28.088525169599,0</coordinates></LineString></Placemark><Placemark><name>Drone — hypothetical start</name><description /><styleUrl>#route</styleUrl><Point><coordinates>153.407580969276,-28.088435237438,0</coordinates></Point></Placemark><Placemark><name>P3 — safe saved destination</name><description>19 m on permitted side; 35.36 m from S0.</description><styleUrl>#route</styleUrl><Point><coordinates>153.407580969276,-28.089064762562,0</coordinates></Point></Placemark><Placemark><name>MAGENTA: proposed route around LEFT side</name><description>Straight legs via illustrative intermediate waypoints, all outside the 25 m circle and west of boundary. 28 m waypoint radius is illustrative route geometry, not an additional blocking buffer. This is a valid candidate, not an exact output of the unimplemented 4.0.5 planner.</description><styleUrl>#route</styleUrl><LineString><tessellate>1</tessellate><coordinates>153.407580969276,-28.088435237438,0 153.407530000000,-28.088498189950,0 153.407480435958,-28.088502015511,0 153.407432377894,-28.088513375954,0 153.407387286028,-28.088531926100,0 153.407346530454,-28.088557102311,0 153.407311349510,-28.088588139620,0 153.407282812150,-28.088624094975,0 153.407261785468,-28.088663875891,0 153.407248908348,-28.088706273644,0 153.407244572056,-28.088750000000,0 153.407248908348,-28.088793726356,0 153.407261785468,-28.088836124109,0 153.407282812150,-28.088875905025,0 153.407311349510,-28.088911860380,0 153.407346530454,-28.088942897689,0 153.407387286028,-28.088968073900,0 153.407432377894,-28.088986624046,0 153.407480435958,-28.088997984489,0 153.407530000000,-28.089001810050,0 153.407580969276,-28.089064762562,0</coordinates></LineString></Placemark><Placemark><name>Entry waypoint</name><description /><styleUrl>#route</styleUrl><Point><coordinates>153.407530000000,-28.088498189950,0</coordinates></Point></Placemark><Placemark><name>Left-side waypoint</name><description /><styleUrl>#route</styleUrl><Point><coordinates>153.407244572056,-28.088750000000,0</coordinates></Point></Placemark><Placemark><name>Exit waypoint</name><description /><styleUrl>#route</styleUrl><Point><coordinates>153.407530000000,-28.089001810050,0</coordinates></Point></Placemark><Placemark><name>Circle / boundary intersection</name><description /><styleUrl>#boundary</styleUrl><Point><coordinates>153.407774652523,-28.088812952512,0</coordinates></Point></Placemark><Placemark><name>Circle / boundary intersection</name><description /><styleUrl>#boundary</styleUrl><Point><coordinates>153.407774652523,-28.088687047488,0</coordinates></Point></Placemark></Document></kml>