<?xml version='1.0' encoding='utf-8'?>
<kml xmlns="http://www.opengis.net/kml/2.2"><Document><name>VT 4.0.5 proposal — boundary / clearance overlap</name><description>Hypothetical boundary is 20 m from S0, intersecting the 25 m circle. Unchanged P3 is beyond this boundary, so neither direction is permitted. Magenta D shows hold; red route is prohibited. Original boundary is retained hidden. Yellow: proposed 25 m circle. Orange: historical 27 m circle. Blue: historical planned route. Red shade: beachward circle cap. Proposed illustration only, not flown or implemented. Horizontal ground-clamped geometry.</description>
<Style id="drone"><IconStyle><color>ff00ffff</color><scale>1.1</scale></IconStyle></Style>
<Style id="surfer"><IconStyle><color>ff00ff00</color><scale>1.1</scale></IconStyle></Style>
<Style id="waypoint"><IconStyle><color>ffff0000</color><scale>1.1</scale></IconStyle></Style>
<Style id="anchor"><IconStyle><color>ff0000ff</color><scale>1.1</scale></IconStyle></Style>
<Style id="route"><LineStyle><color>ffff0000</color><width>4</width></LineStyle></Style>
<Style id="boundary"><LineStyle><color>ff0000ff</color><width>4</width></LineStyle></Style>
<Style id="sea"><LineStyle><color>ff00ff00</color><width>3</width></LineStyle></Style>
<Style id="clearance"><LineStyle><color>ff00aaff</color><width>2</width></LineStyle></Style>
<Placemark><name>Drone — route start</name><description>Aircraft position when route saved at 22:02:55.495; not later aircraft position.</description><styleUrl>#drone</styleUrl><Point><coordinates>153.407519662373,-28.088445349299,0</coordinates></Point></Placemark>
<Placemark><name>Surfer — planning snapshot</name><description>Frozen target position used to plan this route.</description><styleUrl>#surfer</styleUrl><Point><coordinates>153.407530000000,-28.088750000000,0</coordinates></Point></Placemark>
<Placemark><name>Boundary anchor — first central capture</name><description>Boundary passes through this original aircraft central point, parallel to configured shoreline.</description><styleUrl>#anchor</styleUrl><Point><coordinates>153.407738617731,-28.088399932930,0</coordinates></Point></Placemark>
<Placemark><name>P1</name><description>Drone-to-waypoint at planning: 27.54 m; surfer-to-waypoint: 28.13 m; waypoint-to-boundary: 4.22 m on sea side.</description><styleUrl>#waypoint</styleUrl><Point><coordinates>153.407749640434,-28.088587406795,0</coordinates></Point></Placemark>
<Placemark><name>P2</name><description>Drone-to-waypoint at planning: 29.89 m; surfer-to-waypoint: 28.13 m; waypoint-to-boundary: 3.26 m on sea side.</description><styleUrl>#waypoint</styleUrl><Point><coordinates>153.407764867457,-28.088604913769,0</coordinates></Point></Placemark>
<Placemark><name>P3 — destination</name><description>Drone-to-waypoint at planning: 54.52 m; surfer-to-waypoint: 33.89 m; waypoint-to-boundary: 0.28 m on sea side.</description><styleUrl>#waypoint</styleUrl><Point><coordinates>153.407863112929,-28.088830811851,0</coordinates></Point></Placemark>
<Placemark><name>Planned route: Drone → P1 → P2 → P3</name><description>Straight planned legs. This is not the recorded flight track.</description><styleUrl>#route</styleUrl><LineString><tessellate>1</tessellate><coordinates>153.407519662373,-28.088445349299,0 153.407749640434,-28.088587406795,0 153.407764867457,-28.088604913769,0 153.407863112929,-28.088830811851,0</coordinates></LineString></Placemark>
<Placemark><name>Historical central boundary — hidden for comparison</name><description>Display spans 300 m; the boundary is conceptually an infinite line.</description><styleUrl>#boundary</styleUrl><LineString><tessellate>1</tessellate><coordinates>153.407352549534,-28.087094656490,0 153.408124685929,-28.089705209369,0</coordinates></LineString><visibility>0</visibility></Placemark>
<Placemark><name>Direction toward SEA</name><description /><styleUrl>#sea</styleUrl><LineString><tessellate>1</tessellate><coordinates>153.407738617731,-28.088399932930,0 153.407245440228,-28.088513465575,0</coordinates></LineString></Placemark>
<Placemark><name>SEA side — permitted</name><description>Seaward direction from boundary.</description><styleUrl>#surfer</styleUrl><Point><coordinates>153.407245440228,-28.088513465575,0</coordinates></Point></Placemark>
<Placemark><name>Historical 27 m clearance — original test setting</name><description>25 m retreat threshold plus 2 m extra path clearance around frozen surfer position.</description><styleUrl>#clearance</styleUrl><LineString><tessellate>1</tessellate><coordinates>153.407530000000,-28.088507183166,0 153.407544404639,-28.088507515938,0 153.407558769796,-28.088508513342,0 153.407573056097,-28.088510172645,0 153.407587224385,-28.088512489297,0 153.407601235824,-28.088515456949,0 153.407615052011,-28.088519067468,0 153.407628635076,-28.088523310957,0 153.407641947789,-28.088528175785,0 153.407654953661,-28.088533648617,0 153.407667617044,-28.088539714454,0 153.407679903228,-28.088546356668,0 153.407691778538,-28.088553557055,0 153.407703210424,-28.088561295878,0 153.407714167552,-28.088569551927,0 153.407724619890,-28.088578302570,0 153.407734538789,-28.088587523825,0 153.407743897060,-28.088597190415,0 153.407752669055,-28.088607275846,0 153.407760830729,-28.088617752474,0 153.407768359713,-28.088628591583,0 153.407775235368,-28.088639763464,0 153.407781438851,-28.088651237496,0 153.407786953158,-28.088662982229,0 153.407791763173,-28.088674965472,0 153.407795855714,-28.088687154379,0 153.407799219563,-28.088699515542,0 153.407801845500,-28.088712015079,0 153.407803726327,-28.088724618730,0 153.407804856890,-28.088737291949,0 153.407805234088,-28.088750000000,0 153.407804856890,-28.088762708051,0 153.407803726327,-28.088775381270,0 153.407801845500,-28.088787984921,0 153.407799219563,-28.088800484458,0 153.407795855714,-28.088812845621,0 153.407791763173,-28.088825034528,0 153.407786953158,-28.088837017771,0 153.407781438851,-28.088848762504,0 153.407775235368,-28.088860236536,0 153.407768359713,-28.088871408417,0 153.407760830729,-28.088882247526,0 153.407752669055,-28.088892724154,0 153.407743897060,-28.088902809585,0 153.407734538789,-28.088912476175,0 153.407724619890,-28.088921697430,0 153.407714167552,-28.088930448073,0 153.407703210424,-28.088938704122,0 153.407691778538,-28.088946442945,0 153.407679903228,-28.088953643332,0 153.407667617044,-28.088960285546,0 153.407654953661,-28.088966351383,0 153.407641947789,-28.088971824215,0 153.407628635076,-28.088976689043,0 153.407615052011,-28.088980932532,0 153.407601235824,-28.088984543051,0 153.407587224385,-28.088987510703,0 153.407573056097,-28.088989827355,0 153.407558769796,-28.088991486658,0 153.407544404639,-28.088992484062,0 153.407530000000,-28.088992816834,0 153.407515595361,-28.088992484062,0 153.407501230204,-28.088991486658,0 153.407486943903,-28.088989827355,0 153.407472775615,-28.088987510703,0 153.407458764176,-28.088984543051,0 153.407444947989,-28.088980932532,0 153.407431364924,-28.088976689043,0 153.407418052211,-28.088971824215,0 153.407405046339,-28.088966351383,0 153.407392382956,-28.088960285546,0 153.407380096772,-28.088953643332,0 153.407368221462,-28.088946442945,0 153.407356789576,-28.088938704122,0 153.407345832448,-28.088930448073,0 153.407335380110,-28.088921697430,0 153.407325461211,-28.088912476175,0 153.407316102940,-28.088902809585,0 153.407307330945,-28.088892724154,0 153.407299169271,-28.088882247526,0 153.407291640287,-28.088871408417,0 153.407284764632,-28.088860236536,0 153.407278561149,-28.088848762504,0 153.407273046842,-28.088837017771,0 153.407268236827,-28.088825034528,0 153.407264144286,-28.088812845621,0 153.407260780437,-28.088800484458,0 153.407258154500,-28.088787984921,0 153.407256273673,-28.088775381270,0 153.407255143110,-28.088762708051,0 153.407254765912,-28.088750000000,0 153.407255143110,-28.088737291949,0 153.407256273673,-28.088724618730,0 153.407258154500,-28.088712015079,0 153.407260780437,-28.088699515542,0 153.407264144286,-28.088687154379,0 153.407268236827,-28.088674965472,0 153.407273046842,-28.088662982229,0 153.407278561149,-28.088651237496,0 153.407284764632,-28.088639763464,0 153.407291640287,-28.088628591583,0 153.407299169271,-28.088617752474,0 153.407307330945,-28.088607275846,0 153.407316102940,-28.088597190415,0 153.407325461211,-28.088587523825,0 153.407335380110,-28.088578302570,0 153.407345832448,-28.088569551927,0 153.407356789576,-28.088561295878,0 153.407368221462,-28.088553557055,0 153.407380096772,-28.088546356668,0 153.407392382956,-28.088539714454,0 153.407405046339,-28.088533648617,0 153.407418052211,-28.088528175785,0 153.407431364924,-28.088523310957,0 153.407444947989,-28.088519067468,0 153.407458764176,-28.088515456949,0 153.407472775615,-28.088512489297,0 153.407486943903,-28.088510172645,0 153.407501230204,-28.088508513342,0 153.407515595361,-28.088507515938,0 153.407530000000,-28.088507183166,0</coordinates></LineString></Placemark>
<Style id="proposedRecovery"><LineStyle><color>ffff00ff</color><width>5</width></LineStyle><IconStyle><color>ffff00ff</color></IconStyle></Style><Style id="noBuffer"><LineStyle><color>ff00ffff</color><width>2</width></LineStyle><IconStyle><color>ff00ffff</color></IconStyle></Style><Placemark><name>25 m clearance — proposed zero extra buffer</name><description>Proposed assumption: 25 m retreat threshold + 0 m extra path clearance. Centred on captured S0.</description><styleUrl>#noBuffer</styleUrl><LineString><tessellate>1</tessellate><coordinates>153.407530000000,-28.088525169599,0 153.407543337629,-28.088525477721,0 153.407556638700,-28.088526401243,0 153.407569866757,-28.088527937634,0 153.407582985541,-28.088530082682,0 153.407595959096,-28.088532830509,0 153.407608751862,-28.088536173582,0 153.407621328774,-28.088540102738,0 153.407633655360,-28.088544607208,0 153.407645697835,-28.088549674645,0 153.407657423189,-28.088555291161,0 153.407668799285,-28.088561441360,0 153.407679794943,-28.088568108384,0 153.407690380022,-28.088575273961,0 153.407700525512,-28.088582918451,0 153.407710203602,-28.088591020898,0 153.407719387767,-28.088599559097,0 153.407728052834,-28.088608509644,0 153.407736175051,-28.088617848006,0 153.407743732157,-28.088627548587,0 153.407750703438,-28.088637584799,0 153.407757069786,-28.088647929134,0 153.407762813751,-28.088658553237,0 153.407767919590,-28.088669427990,0 153.407772373309,-28.088680523585,0 153.407776162698,-28.088691809610,0 153.407779277373,-28.088703255131,0 153.407781708796,-28.088714828776,0 153.407783450303,-28.088726498824,0 153.407784497120,-28.088738233286,0 153.407784846378,-28.088750000000,0 153.407784497120,-28.088761766714,0 153.407783450303,-28.088773501176,0 153.407781708796,-28.088785171224,0 153.407779277373,-28.088796744869,0 153.407776162698,-28.088808190390,0 153.407772373309,-28.088819476415,0 153.407767919590,-28.088830572010,0 153.407762813751,-28.088841446763,0 153.407757069786,-28.088852070866,0 153.407750703438,-28.088862415201,0 153.407743732157,-28.088872451413,0 153.407736175051,-28.088882151994,0 153.407728052834,-28.088891490356,0 153.407719387767,-28.088900440903,0 153.407710203602,-28.088908979102,0 153.407700525512,-28.088917081549,0 153.407690380022,-28.088924726039,0 153.407679794943,-28.088931891616,0 153.407668799285,-28.088938558640,0 153.407657423189,-28.088944708839,0 153.407645697835,-28.088950325355,0 153.407633655360,-28.088955392792,0 153.407621328774,-28.088959897262,0 153.407608751862,-28.088963826418,0 153.407595959096,-28.088967169491,0 153.407582985541,-28.088969917318,0 153.407569866757,-28.088972062366,0 153.407556638700,-28.088973598757,0 153.407543337629,-28.088974522279,0 153.407530000000,-28.088974830401,0 153.407516662371,-28.088974522279,0 153.407503361300,-28.088973598757,0 153.407490133243,-28.088972062366,0 153.407477014459,-28.088969917318,0 153.407464040904,-28.088967169491,0 153.407451248138,-28.088963826418,0 153.407438671226,-28.088959897262,0 153.407426344640,-28.088955392792,0 153.407414302165,-28.088950325355,0 153.407402576811,-28.088944708839,0 153.407391200715,-28.088938558640,0 153.407380205057,-28.088931891616,0 153.407369619978,-28.088924726039,0 153.407359474488,-28.088917081549,0 153.407349796398,-28.088908979102,0 153.407340612233,-28.088900440903,0 153.407331947166,-28.088891490356,0 153.407323824949,-28.088882151994,0 153.407316267843,-28.088872451413,0 153.407309296562,-28.088862415201,0 153.407302930214,-28.088852070866,0 153.407297186249,-28.088841446763,0 153.407292080410,-28.088830572010,0 153.407287626691,-28.088819476415,0 153.407283837302,-28.088808190390,0 153.407280722627,-28.088796744869,0 153.407278291204,-28.088785171224,0 153.407276549697,-28.088773501176,0 153.407275502880,-28.088761766714,0 153.407275153622,-28.088750000000,0 153.407275502880,-28.088738233286,0 153.407276549697,-28.088726498824,0 153.407278291204,-28.088714828776,0 153.407280722627,-28.088703255131,0 153.407283837302,-28.088691809610,0 153.407287626691,-28.088680523585,0 153.407292080410,-28.088669427990,0 153.407297186249,-28.088658553237,0 153.407302930214,-28.088647929134,0 153.407309296562,-28.088637584799,0 153.407316267843,-28.088627548587,0 153.407323824949,-28.088617848006,0 153.407331947166,-28.088608509644,0 153.407340612233,-28.088599559097,0 153.407349796398,-28.088591020898,0 153.407359474488,-28.088582918451,0 153.407369619978,-28.088575273961,0 153.407380205057,-28.088568108384,0 153.407391200715,-28.088561441360,0 153.407402576811,-28.088555291161,0 153.407414302165,-28.088549674645,0 153.407426344640,-28.088544607208,0 153.407438671226,-28.088540102738,0 153.407451248138,-28.088536173582,0 153.407464040904,-28.088532830509,0 153.407477014459,-28.088530082682,0 153.407490133243,-28.088527937634,0 153.407503361300,-28.088526401243,0 153.407516662371,-28.088525477721,0 153.407530000000,-28.088525169599,0</coordinates></LineString></Placemark><Placemark><name>D — actual reported stop position, 22:03:00.831</name><description>27.163 m from S0. D to P1 minimum clearance 26.955 m: passes the proposed 25 m rule.</description><styleUrl>#drone</styleUrl><Point><coordinates>153.407652700918,-28.088531011123,0</coordinates></Point></Placemark><Placemark><name>RED: hypothetical boundary 20 m from S0</name><description>Assumed boundary for overlap scenario, parallel to original shoreline; not the recorded boundary.</description><styleUrl>#boundary</styleUrl><LineString><tessellate>1</tessellate><coordinates>153.408113341101,-28.090009863381,0 153.407341202188,-28.087399310502,0</coordinates></LineString></Placemark><Placemark><name>RED: original continuation is prohibited with assumed boundary</name><description>P3 is beachward of the hypothetical boundary. No clockwise or anticlockwise route can reach unchanged P3. Red line is a prohibited illustration, not a proposed movement. [{'leg': 'D → P1', 'minimum_S0_clearance_m': 26.95480448260489, 'minimum_boundary_seaward_m': -5.413086203985776}, {'leg': 'P1 → P2', 'minimum_S0_clearance_m': 28.100000015797505, 'minimum_boundary_seaward_m': -6.366926571114636}, {'leg': 'P2 → P3', 'minimum_S0_clearance_m': 27.290232178087717, 'minimum_boundary_seaward_m': -9.350288962336379}]</description><styleUrl>#boundary</styleUrl><LineString><tessellate>1</tessellate><coordinates>153.407652700918,-28.088531011123,0 153.407749640434,-28.088587406795,0 153.407764867457,-28.088604913769,0 153.407863112929,-28.088830811851,0</coordinates></LineString></Placemark><Placemark><name>MAGENTA: 4.0.5 holds at D — P3 blocked</name><description>P3 is 9.350 m beachward of the hypothetical boundary. Hold and aim; log destination_central_boundary. No positioning route starts.</description><styleUrl>#proposedRecovery</styleUrl><Point><coordinates>153.407652700918,-28.088531011123,0</coordinates></Point></Placemark><Placemark><name>Boundary / 25 m circle intersection 1</name><description>The hypothetical central boundary cuts through the proposed 25 m clearance circle. The route must satisfy both constraints.</description><styleUrl>#anchor</styleUrl><Point><coordinates>153.407765878590,-28.088835114586,0</coordinates></Point></Placemark><Placemark><name>Boundary / 25 m circle intersection 2</name><description>The hypothetical central boundary cuts through the proposed 25 m clearance circle. The route must satisfy both constraints.</description><styleUrl>#anchor</styleUrl><Point><coordinates>153.407688664699,-28.088574059298,0</coordinates></Point></Placemark><Style id="overlapArea"><PolyStyle><color>660000ff</color></PolyStyle><LineStyle><color>ff0000ff</color></LineStyle></Style><Placemark><name>RED SHADE: circle portion beachward of boundary</name><description>Hypothetical boundary moved to 20 m from S0 to demonstrate overlap. Both this cap and the rest of the 25 m circle are excluded from ordinary positioning.</description><styleUrl>#overlapArea</styleUrl><Polygon><tessellate>1</tessellate><outerBoundaryIs><LinearRing><coordinates>153.407688664699,-28.088574059298,0 153.407690086556,-28.088575064624,0 153.407691500229,-28.088576078894,0 153.407692905645,-28.088577102055,0 153.407694302733,-28.088578134054,0 153.407695691422,-28.088579174840,0 153.407697071640,-28.088580224360,0 153.407698443317,-28.088581282558,0 153.407699806383,-28.088582349382,0 153.407701160768,-28.088583424776,0 153.407702506403,-28.088584508686,0 153.407703843218,-28.088585601056,0 153.407705171147,-28.088586701831,0 153.407706490120,-28.088587810954,0 153.407707800071,-28.088588928369,0 153.407709100932,-28.088590054018,0 153.407710392637,-28.088591187844,0 153.407711675120,-28.088592329789,0 153.407712948315,-28.088593479794,0 153.407714212158,-28.088594637801,0 153.407715466583,-28.088595803750,0 153.407716711526,-28.088596977582,0 153.407717946925,-28.088598159237,0 153.407719172715,-28.088599348655,0 153.407720388834,-28.088600545774,0 153.407721595220,-28.088601750534,0 153.407722791811,-28.088602962873,0 153.407723978547,-28.088604182728,0 153.407725155365,-28.088605410038,0 153.407726322207,-28.088606644740,0 153.407727479012,-28.088607886771,0 153.407728625722,-28.088609136066,0 153.407729762277,-28.088610392563,0 153.407730888620,-28.088611656197,0 153.407732004693,-28.088612926904,0 153.407733110440,-28.088614204618,0 153.407734205802,-28.088615489274,0 153.407735290725,-28.088616780807,0 153.407736365154,-28.088618079150,0 153.407737429032,-28.088619384238,0 153.407738482306,-28.088620696003,0 153.407739524922,-28.088622014378,0 153.407740556826,-28.088623339296,0 153.407741577966,-28.088624670689,0 153.407742588290,-28.088626008490,0 153.407743587746,-28.088627352629,0 153.407744576283,-28.088628703038,0 153.407745553850,-28.088630059648,0 153.407746520397,-28.088631422390,0 153.407747475876,-28.088632791194,0 153.407748420236,-28.088634165990,0 153.407749353431,-28.088635546707,0 153.407750275411,-28.088636933276,0 153.407751186130,-28.088638325625,0 153.407752085542,-28.088639723683,0 153.407752973600,-28.088641127379,0 153.407753850260,-28.088642536640,0 153.407754715475,-28.088643951395,0 153.407755569203,-28.088645371572,0 153.407756411398,-28.088646797097,0 153.407757242020,-28.088648227899,0 153.407758061024,-28.088649663903,0 153.407758868368,-28.088651105037,0 153.407759664013,-28.088652551227,0 153.407760447917,-28.088654002398,0 153.407761220039,-28.088655458477,0 153.407761980341,-28.088656919389,0 153.407762728784,-28.088658385060,0 153.407763465329,-28.088659855415,0 153.407764189938,-28.088661330377,0 153.407764902576,-28.088662809873,0 153.407765603204,-28.088664293826,0 153.407766291788,-28.088665782161,0 153.407766968292,-28.088667274801,0 153.407767632682,-28.088668771670,0 153.407768284923,-28.088670272692,0 153.407768924982,-28.088671777789,0 153.407769552828,-28.088673286886,0 153.407770168426,-28.088674799904,0 153.407770771747,-28.088676316767,0 153.407771362759,-28.088677837396,0 153.407771941431,-28.088679361715,0 153.407772507735,-28.088680889645,0 153.407773061642,-28.088682421108,0 153.407773603122,-28.088683956026,0 153.407774132149,-28.088685494320,0 153.407774648696,-28.088687035912,0 153.407775152735,-28.088688580722,0 153.407775644241,-28.088690128673,0 153.407776123190,-28.088691679684,0 153.407776589556,-28.088693233677,0 153.407777043316,-28.088694790572,0 153.407777484446,-28.088696350289,0 153.407777912925,-28.088697912749,0 153.407778328729,-28.088699477872,0 153.407778731838,-28.088701045578,0 153.407779122232,-28.088702615786,0 153.407779499889,-28.088704188417,0 153.407779864792,-28.088705763389,0 153.407780216921,-28.088707340624,0 153.407780556258,-28.088708920039,0 153.407780882787,-28.088710501554,0 153.407781196489,-28.088712085088,0 153.407781497350,-28.088713670561,0 153.407781785354,-28.088715257891,0 153.407782060485,-28.088716846997,0 153.407782322731,-28.088718437798,0 153.407782572077,-28.088720030213,0 153.407782808511,-28.088721624159,0 153.407783032022,-28.088723219556,0 153.407783242596,-28.088724816323,0 153.407783440224,-28.088726414377,0 153.407783624896,-28.088728013636,0 153.407783796601,-28.088729614020,0 153.407783955332,-28.088731215445,0 153.407784101080,-28.088732817831,0 153.407784233838,-28.088734421096,0 153.407784353599,-28.088736025157,0 153.407784460357,-28.088737629932,0 153.407784554106,-28.088739235340,0 153.407784634841,-28.088740841298,0 153.407784702559,-28.088742447724,0 153.407784757256,-28.088744054536,0 153.407784798929,-28.088745661653,0 153.407784827576,-28.088747268991,0 153.407784843196,-28.088748876468,0 153.407784845788,-28.088750484003,0 153.407784835351,-28.088752091514,0 153.407784811886,-28.088753698917,0 153.407784775395,-28.088755306131,0 153.407784725879,-28.088756913074,0 153.407784663341,-28.088758519664,0 153.407784587784,-28.088760125818,0 153.407784499211,-28.088761731455,0 153.407784397629,-28.088763336491,0 153.407784283040,-28.088764940846,0 153.407784155452,-28.088766544437,0 153.407784014871,-28.088768147183,0 153.407783861304,-28.088769749000,0 153.407783694759,-28.088771349808,0 153.407783515245,-28.088772949525,0 153.407783322770,-28.088774548068,0 153.407783117345,-28.088776145356,0 153.407782898980,-28.088777741308,0 153.407782667686,-28.088779335841,0 153.407782423475,-28.088780928875,0 153.407782166359,-28.088782520328,0 153.407781896353,-28.088784110118,0 153.407781613468,-28.088785698164,0 153.407781317721,-28.088787284386,0 153.407781009125,-28.088788868701,0 153.407780687697,-28.088790451029,0 153.407780353454,-28.088792031289,0 153.407780006412,-28.088793609401,0 153.407779646589,-28.088795185283,0 153.407779274003,-28.088796758855,0 153.407778888674,-28.088798330037,0 153.407778490621,-28.088799898747,0 153.407778079865,-28.088801464907,0 153.407777656426,-28.088803028436,0 153.407777220326,-28.088804589254,0 153.407776771588,-28.088806147282,0 153.407776310234,-28.088807702439,0 153.407775836288,-28.088809254646,0 153.407775349775,-28.088810803823,0 153.407774850719,-28.088812349893,0 153.407774339145,-28.088813892774,0 153.407773815080,-28.088815432390,0 153.407773278551,-28.088816968660,0 153.407772729584,-28.088818501507,0 153.407772168209,-28.088820030852,0 153.407771594453,-28.088821556617,0 153.407771008347,-28.088823078723,0 153.407770409920,-28.088824597094,0 153.407769799202,-28.088826111651,0 153.407769176225,-28.088827622317,0 153.407768541021,-28.088829129014,0 153.407767893622,-28.088830631667,0 153.407767234061,-28.088832130197,0 153.407766562373,-28.088833624529,0 153.407765878590,-28.088835114586,0 153.407688664699,-28.088574059298,0</coordinates></LinearRing></outerBoundaryIs></Polygon></Placemark></Document></kml>