<?xml version='1.0' encoding='utf-8'?>
<kml xmlns="http://www.opengis.net/kml/2.2"><Document><name>VT 4.0.5 what-if — overlapping boundary, P3 safe</name><description>Hypothetical boundary shifted and rotated: east-west line 20 m south of captured S0, north permitted. Saved target and waypoints unchanged; angle labels refer to original recorded configuration. Magenta: permitted continuation D-P1-P2-P3. Yellow: 25 m circle. Orange: historical 27 m circle. Blue: historical planned route. Red shade: circle/beachward overlap. No extra leg needed because existing remaining legs pass. Illustration only, not actual flight or implemented 4.0.5.</description>
<Style id="drone"><IconStyle><color>ff00ffff</color><scale>1.1</scale></IconStyle></Style>
<Style id="surfer"><IconStyle><color>ff00ff00</color><scale>1.1</scale></IconStyle></Style>
<Style id="waypoint"><IconStyle><color>ffff0000</color><scale>1.1</scale></IconStyle></Style>
<Style id="anchor"><IconStyle><color>ff0000ff</color><scale>1.1</scale></IconStyle></Style>
<Style id="route"><LineStyle><color>ffff0000</color><width>4</width></LineStyle></Style>
<Style id="boundary"><LineStyle><color>ff0000ff</color><width>4</width></LineStyle></Style>
<Style id="sea"><LineStyle><color>ff00ff00</color><width>3</width></LineStyle></Style>
<Style id="clearance"><LineStyle><color>ff00aaff</color><width>2</width></LineStyle></Style>
<Placemark><name>Drone — route start</name><description>Aircraft position when route saved at 22:02:55.495; not later aircraft position.</description><styleUrl>#drone</styleUrl><Point><coordinates>153.407519662373,-28.088445349299,0</coordinates></Point></Placemark>
<Placemark><name>Surfer — planning snapshot</name><description>Frozen target position used to plan this route.</description><styleUrl>#surfer</styleUrl><Point><coordinates>153.407530000000,-28.088750000000,0</coordinates></Point></Placemark>
<Placemark><name>P1</name><description>Drone-to-waypoint at planning: 27.54 m; surfer-to-waypoint: 28.13 m; waypoint-to-boundary: 4.22 m on sea side.</description><styleUrl>#waypoint</styleUrl><Point><coordinates>153.407749640434,-28.088587406795,0</coordinates></Point></Placemark>
<Placemark><name>P2</name><description>Drone-to-waypoint at planning: 29.89 m; surfer-to-waypoint: 28.13 m; waypoint-to-boundary: 3.26 m on sea side.</description><styleUrl>#waypoint</styleUrl><Point><coordinates>153.407764867457,-28.088604913769,0</coordinates></Point></Placemark>
<Placemark><name>P3 — destination</name><description>Drone-to-waypoint at planning: 54.52 m; surfer-to-waypoint: 33.89 m; waypoint-to-boundary: 0.28 m on sea side.</description><styleUrl>#waypoint</styleUrl><Point><coordinates>153.407863112929,-28.088830811851,0</coordinates></Point></Placemark>
<Placemark><name>Planned route: Drone → P1 → P2 → P3</name><description>Straight planned legs. This is not the recorded flight track.</description><styleUrl>#route</styleUrl><LineString><tessellate>1</tessellate><coordinates>153.407519662373,-28.088445349299,0 153.407749640434,-28.088587406795,0 153.407764867457,-28.088604913769,0 153.407863112929,-28.088830811851,0</coordinates></LineString></Placemark>
<Placemark><name>Historical boundary — hidden comparison</name><description>Display spans 300 m; the boundary is conceptually an infinite line.</description><styleUrl>#boundary</styleUrl><LineString><tessellate>1</tessellate><coordinates>153.407352549534,-28.087094656490,0 153.408124685929,-28.089705209369,0</coordinates></LineString><visibility>0</visibility></Placemark>
<Placemark><name>Historical 27 m clearance — original test setting</name><description>25 m retreat threshold plus 2 m extra path clearance around frozen surfer position.</description><styleUrl>#clearance</styleUrl><LineString><tessellate>1</tessellate><coordinates>153.407530000000,-28.088507183166,0 153.407544404639,-28.088507515938,0 153.407558769796,-28.088508513342,0 153.407573056097,-28.088510172645,0 153.407587224385,-28.088512489297,0 153.407601235824,-28.088515456949,0 153.407615052011,-28.088519067468,0 153.407628635076,-28.088523310957,0 153.407641947789,-28.088528175785,0 153.407654953661,-28.088533648617,0 153.407667617044,-28.088539714454,0 153.407679903228,-28.088546356668,0 153.407691778538,-28.088553557055,0 153.407703210424,-28.088561295878,0 153.407714167552,-28.088569551927,0 153.407724619890,-28.088578302570,0 153.407734538789,-28.088587523825,0 153.407743897060,-28.088597190415,0 153.407752669055,-28.088607275846,0 153.407760830729,-28.088617752474,0 153.407768359713,-28.088628591583,0 153.407775235368,-28.088639763464,0 153.407781438851,-28.088651237496,0 153.407786953158,-28.088662982229,0 153.407791763173,-28.088674965472,0 153.407795855714,-28.088687154379,0 153.407799219563,-28.088699515542,0 153.407801845500,-28.088712015079,0 153.407803726327,-28.088724618730,0 153.407804856890,-28.088737291949,0 153.407805234088,-28.088750000000,0 153.407804856890,-28.088762708051,0 153.407803726327,-28.088775381270,0 153.407801845500,-28.088787984921,0 153.407799219563,-28.088800484458,0 153.407795855714,-28.088812845621,0 153.407791763173,-28.088825034528,0 153.407786953158,-28.088837017771,0 153.407781438851,-28.088848762504,0 153.407775235368,-28.088860236536,0 153.407768359713,-28.088871408417,0 153.407760830729,-28.088882247526,0 153.407752669055,-28.088892724154,0 153.407743897060,-28.088902809585,0 153.407734538789,-28.088912476175,0 153.407724619890,-28.088921697430,0 153.407714167552,-28.088930448073,0 153.407703210424,-28.088938704122,0 153.407691778538,-28.088946442945,0 153.407679903228,-28.088953643332,0 153.407667617044,-28.088960285546,0 153.407654953661,-28.088966351383,0 153.407641947789,-28.088971824215,0 153.407628635076,-28.088976689043,0 153.407615052011,-28.088980932532,0 153.407601235824,-28.088984543051,0 153.407587224385,-28.088987510703,0 153.407573056097,-28.088989827355,0 153.407558769796,-28.088991486658,0 153.407544404639,-28.088992484062,0 153.407530000000,-28.088992816834,0 153.407515595361,-28.088992484062,0 153.407501230204,-28.088991486658,0 153.407486943903,-28.088989827355,0 153.407472775615,-28.088987510703,0 153.407458764176,-28.088984543051,0 153.407444947989,-28.088980932532,0 153.407431364924,-28.088976689043,0 153.407418052211,-28.088971824215,0 153.407405046339,-28.088966351383,0 153.407392382956,-28.088960285546,0 153.407380096772,-28.088953643332,0 153.407368221462,-28.088946442945,0 153.407356789576,-28.088938704122,0 153.407345832448,-28.088930448073,0 153.407335380110,-28.088921697430,0 153.407325461211,-28.088912476175,0 153.407316102940,-28.088902809585,0 153.407307330945,-28.088892724154,0 153.407299169271,-28.088882247526,0 153.407291640287,-28.088871408417,0 153.407284764632,-28.088860236536,0 153.407278561149,-28.088848762504,0 153.407273046842,-28.088837017771,0 153.407268236827,-28.088825034528,0 153.407264144286,-28.088812845621,0 153.407260780437,-28.088800484458,0 153.407258154500,-28.088787984921,0 153.407256273673,-28.088775381270,0 153.407255143110,-28.088762708051,0 153.407254765912,-28.088750000000,0 153.407255143110,-28.088737291949,0 153.407256273673,-28.088724618730,0 153.407258154500,-28.088712015079,0 153.407260780437,-28.088699515542,0 153.407264144286,-28.088687154379,0 153.407268236827,-28.088674965472,0 153.407273046842,-28.088662982229,0 153.407278561149,-28.088651237496,0 153.407284764632,-28.088639763464,0 153.407291640287,-28.088628591583,0 153.407299169271,-28.088617752474,0 153.407307330945,-28.088607275846,0 153.407316102940,-28.088597190415,0 153.407325461211,-28.088587523825,0 153.407335380110,-28.088578302570,0 153.407345832448,-28.088569551927,0 153.407356789576,-28.088561295878,0 153.407368221462,-28.088553557055,0 153.407380096772,-28.088546356668,0 153.407392382956,-28.088539714454,0 153.407405046339,-28.088533648617,0 153.407418052211,-28.088528175785,0 153.407431364924,-28.088523310957,0 153.407444947989,-28.088519067468,0 153.407458764176,-28.088515456949,0 153.407472775615,-28.088512489297,0 153.407486943903,-28.088510172645,0 153.407501230204,-28.088508513342,0 153.407515595361,-28.088507515938,0 153.407530000000,-28.088507183166,0</coordinates></LineString></Placemark>
<Style id="proposedRecovery"><LineStyle><color>ffff00ff</color><width>5</width></LineStyle><IconStyle><color>ffff00ff</color></IconStyle></Style><Style id="noBuffer"><LineStyle><color>ff00ffff</color><width>2</width></LineStyle><IconStyle><color>ff00ffff</color></IconStyle></Style><Placemark><name>25 m clearance — proposed zero extra buffer</name><description>Proposed assumption: 25 m retreat threshold + 0 m extra path clearance. Centred on captured S0.</description><styleUrl>#noBuffer</styleUrl><LineString><tessellate>1</tessellate><coordinates>153.407530000000,-28.088525169599,0 153.407543337629,-28.088525477721,0 153.407556638700,-28.088526401243,0 153.407569866757,-28.088527937634,0 153.407582985541,-28.088530082682,0 153.407595959096,-28.088532830509,0 153.407608751862,-28.088536173582,0 153.407621328774,-28.088540102738,0 153.407633655360,-28.088544607208,0 153.407645697835,-28.088549674645,0 153.407657423189,-28.088555291161,0 153.407668799285,-28.088561441360,0 153.407679794943,-28.088568108384,0 153.407690380022,-28.088575273961,0 153.407700525512,-28.088582918451,0 153.407710203602,-28.088591020898,0 153.407719387767,-28.088599559097,0 153.407728052834,-28.088608509644,0 153.407736175051,-28.088617848006,0 153.407743732157,-28.088627548587,0 153.407750703438,-28.088637584799,0 153.407757069786,-28.088647929134,0 153.407762813751,-28.088658553237,0 153.407767919590,-28.088669427990,0 153.407772373309,-28.088680523585,0 153.407776162698,-28.088691809610,0 153.407779277373,-28.088703255131,0 153.407781708796,-28.088714828776,0 153.407783450303,-28.088726498824,0 153.407784497120,-28.088738233286,0 153.407784846378,-28.088750000000,0 153.407784497120,-28.088761766714,0 153.407783450303,-28.088773501176,0 153.407781708796,-28.088785171224,0 153.407779277373,-28.088796744869,0 153.407776162698,-28.088808190390,0 153.407772373309,-28.088819476415,0 153.407767919590,-28.088830572010,0 153.407762813751,-28.088841446763,0 153.407757069786,-28.088852070866,0 153.407750703438,-28.088862415201,0 153.407743732157,-28.088872451413,0 153.407736175051,-28.088882151994,0 153.407728052834,-28.088891490356,0 153.407719387767,-28.088900440903,0 153.407710203602,-28.088908979102,0 153.407700525512,-28.088917081549,0 153.407690380022,-28.088924726039,0 153.407679794943,-28.088931891616,0 153.407668799285,-28.088938558640,0 153.407657423189,-28.088944708839,0 153.407645697835,-28.088950325355,0 153.407633655360,-28.088955392792,0 153.407621328774,-28.088959897262,0 153.407608751862,-28.088963826418,0 153.407595959096,-28.088967169491,0 153.407582985541,-28.088969917318,0 153.407569866757,-28.088972062366,0 153.407556638700,-28.088973598757,0 153.407543337629,-28.088974522279,0 153.407530000000,-28.088974830401,0 153.407516662371,-28.088974522279,0 153.407503361300,-28.088973598757,0 153.407490133243,-28.088972062366,0 153.407477014459,-28.088969917318,0 153.407464040904,-28.088967169491,0 153.407451248138,-28.088963826418,0 153.407438671226,-28.088959897262,0 153.407426344640,-28.088955392792,0 153.407414302165,-28.088950325355,0 153.407402576811,-28.088944708839,0 153.407391200715,-28.088938558640,0 153.407380205057,-28.088931891616,0 153.407369619978,-28.088924726039,0 153.407359474488,-28.088917081549,0 153.407349796398,-28.088908979102,0 153.407340612233,-28.088900440903,0 153.407331947166,-28.088891490356,0 153.407323824949,-28.088882151994,0 153.407316267843,-28.088872451413,0 153.407309296562,-28.088862415201,0 153.407302930214,-28.088852070866,0 153.407297186249,-28.088841446763,0 153.407292080410,-28.088830572010,0 153.407287626691,-28.088819476415,0 153.407283837302,-28.088808190390,0 153.407280722627,-28.088796744869,0 153.407278291204,-28.088785171224,0 153.407276549697,-28.088773501176,0 153.407275502880,-28.088761766714,0 153.407275153622,-28.088750000000,0 153.407275502880,-28.088738233286,0 153.407276549697,-28.088726498824,0 153.407278291204,-28.088714828776,0 153.407280722627,-28.088703255131,0 153.407283837302,-28.088691809610,0 153.407287626691,-28.088680523585,0 153.407292080410,-28.088669427990,0 153.407297186249,-28.088658553237,0 153.407302930214,-28.088647929134,0 153.407309296562,-28.088637584799,0 153.407316267843,-28.088627548587,0 153.407323824949,-28.088617848006,0 153.407331947166,-28.088608509644,0 153.407340612233,-28.088599559097,0 153.407349796398,-28.088591020898,0 153.407359474488,-28.088582918451,0 153.407369619978,-28.088575273961,0 153.407380205057,-28.088568108384,0 153.407391200715,-28.088561441360,0 153.407402576811,-28.088555291161,0 153.407414302165,-28.088549674645,0 153.407426344640,-28.088544607208,0 153.407438671226,-28.088540102738,0 153.407451248138,-28.088536173582,0 153.407464040904,-28.088532830509,0 153.407477014459,-28.088530082682,0 153.407490133243,-28.088527937634,0 153.407503361300,-28.088526401243,0 153.407516662371,-28.088525477721,0 153.407530000000,-28.088525169599,0</coordinates></LineString></Placemark><Placemark><name>D — actual reported stop position, 22:03:00.831</name><description>27.163 m from S0. D to P1 minimum clearance 26.955 m: passes the proposed 25 m rule.</description><styleUrl>#drone</styleUrl><Point><coordinates>153.407652700918,-28.088531011123,0</coordinates></Point></Placemark><Placemark><name>RED: hypothetical boundary — overlaps circle, P3 safe</name><description>Illustration only: east-west line 20 m south of S0, north side permitted. Original boundary orientation and location are replaced for this what-if. Saved S0, D and P1/P2/P3 are unchanged.</description><styleUrl>#boundary</styleUrl><LineString><tessellate>1</tessellate><coordinates>153.406000921731,-28.088929864321,0 153.409059078269,-28.088929864321,0</coordinates></LineString></Placemark><Placemark><name>GREEN: permitted side of hypothetical boundary</name><description>North of the red line is permitted in this hypothetical geometry.</description><styleUrl>#sea</styleUrl><LineString><tessellate>1</tessellate><coordinates>153.407530000000,-28.088929864321,0 153.407530000000,-28.088480203518,0</coordinates></LineString></Placemark><Placemark><name>Hypothetical boundary anchor</name><description>Boundary anchor for illustration, not a recorded central capture.</description><styleUrl>#anchor</styleUrl><Point><coordinates>153.407530000000,-28.088929864321,0</coordinates></Point></Placemark><Placemark><name>MAGENTA: 4.0.5 permitted continuation D → P1 → P2 → P3</name><description>Proposed 4.0.5 behaviour with zero extra buffer: each remaining saved leg passes 25 m clearance and the hypothetical boundary. Continue directly to P1, then P2 and unchanged P3; no extra escape is required here. Not flown or implemented. [{'leg': 'D → P1', 'minimum_clearance_m': 26.95480448260489, 'minimum_boundary_seaward_m': 38.079539502894974}, {'leg': 'P1 → P2', 'minimum_clearance_m': 28.100000015797505, 'minimum_boundary_seaward_m': 36.13285281316678}, {'leg': 'P2 → P3', 'minimum_clearance_m': 27.290232178087717, 'minimum_boundary_seaward_m': 11.014132156003345}]</description><styleUrl>#proposedRecovery</styleUrl><LineString><tessellate>1</tessellate><coordinates>153.407652700918,-28.088531011123,0 153.407749640434,-28.088587406795,0 153.407764867457,-28.088604913769,0 153.407863112929,-28.088830811851,0</coordinates></LineString></Placemark><Placemark><name>Boundary / 25 m circle intersection 1</name><description>Hypothetical boundary crosses the clearance circle; the route avoids both prohibited regions.</description><styleUrl>#anchor</styleUrl><Point><coordinates>153.407377092173,-28.088929864321,0</coordinates></Point></Placemark><Placemark><name>Boundary / 25 m circle intersection 2</name><description>Hypothetical boundary crosses the clearance circle; the route avoids both prohibited regions.</description><styleUrl>#anchor</styleUrl><Point><coordinates>153.407682907827,-28.088929864321,0</coordinates></Point></Placemark><Style id="overlapArea"><PolyStyle><color>660000ff</color></PolyStyle><LineStyle><color>ff0000ff</color></LineStyle></Style><Placemark><name>RED SHADE: circle / beachward overlap</name><styleUrl>#overlapArea</styleUrl><Polygon><outerBoundaryIs><LinearRing><coordinates>153.407682907827,-28.088929864321,0 153.407681446207,-28.088930824239,0 153.407679976845,-28.088931774914,0 153.407678499815,-28.088932716295,0 153.407677015194,-28.088933648335,0 153.407675523058,-28.088934570987,0 153.407674023481,-28.088935484203,0 153.407672516542,-28.088936387937,0 153.407671002317,-28.088937282142,0 153.407669480884,-28.088938166773,0 153.407667952320,-28.088939041785,0 153.407666416703,-28.088939907132,0 153.407664874113,-28.088940762770,0 153.407663324628,-28.088941608656,0 153.407661768326,-28.088942444747,0 153.407660205289,-28.088943270999,0 153.407658635595,-28.088944087371,0 153.407657059324,-28.088944893821,0 153.407655476558,-28.088945690307,0 153.407653887378,-28.088946476790,0 153.407652291864,-28.088947253227,0 153.407650690098,-28.088948019581,0 153.407649082162,-28.088948775811,0 153.407647468139,-28.088949521880,0 153.407645848110,-28.088950257748,0 153.407644222159,-28.088950983379,0 153.407642590368,-28.088951698735,0 153.407640952822,-28.088952403780,0 153.407639309603,-28.088953098477,0 153.407637660796,-28.088953782792,0 153.407636006486,-28.088954456688,0 153.407634346756,-28.088955120133,0 153.407632681691,-28.088955773091,0 153.407631011377,-28.088956415529,0 153.407629335900,-28.088957047415,0 153.407627655344,-28.088957668716,0 153.407625969795,-28.088958279401,0 153.407624279341,-28.088958879437,0 153.407622584066,-28.088959468796,0 153.407620884059,-28.088960047446,0 153.407619179405,-28.088960615357,0 153.407617470192,-28.088961172502,0 153.407615756507,-28.088961718851,0 153.407614038439,-28.088962254376,0 153.407612316074,-28.088962779050,0 153.407610589501,-28.088963292847,0 153.407608858808,-28.088963795739,0 153.407607124083,-28.088964287702,0 153.407605385416,-28.088964768710,0 153.407603642895,-28.088965238738,0 153.407601896609,-28.088965697763,0 153.407600146648,-28.088966145761,0 153.407598393100,-28.088966582708,0 153.407596636056,-28.088967008584,0 153.407594875606,-28.088967423366,0 153.407593111838,-28.088967827032,0 153.407591344845,-28.088968219563,0 153.407589574715,-28.088968600937,0 153.407587801540,-28.088968971136,0 153.407586025410,-28.088969330141,0 153.407584246415,-28.088969677933,0 153.407582464648,-28.088970014495,0 153.407580680198,-28.088970339809,0 153.407578893157,-28.088970653859,0 153.407577103617,-28.088970956628,0 153.407575311669,-28.088971248101,0 153.407573517404,-28.088971528264,0 153.407571720915,-28.088971797102,0 153.407569922292,-28.088972054601,0 153.407568121629,-28.088972300747,0 153.407566319017,-28.088972535530,0 153.407564514548,-28.088972758936,0 153.407562708315,-28.088972970953,0 153.407560900410,-28.088973171572,0 153.407559090925,-28.088973360782,0 153.407557279952,-28.088973538573,0 153.407555467586,-28.088973704936,0 153.407553653917,-28.088973859863,0 153.407551839039,-28.088974003346,0 153.407550023044,-28.088974135377,0 153.407548206026,-28.088974255950,0 153.407546388077,-28.088974365058,0 153.407544569290,-28.088974462696,0 153.407542749759,-28.088974548859,0 153.407540929575,-28.088974623542,0 153.407539108833,-28.088974686743,0 153.407537287625,-28.088974738456,0 153.407535466045,-28.088974778681,0 153.407533644185,-28.088974807414,0 153.407531822139,-28.088974824655,0 153.407530000000,-28.088974830401,0 153.407528177861,-28.088974824655,0 153.407526355815,-28.088974807414,0 153.407524533955,-28.088974778681,0 153.407522712375,-28.088974738456,0 153.407520891167,-28.088974686743,0 153.407519070425,-28.088974623542,0 153.407517250241,-28.088974548859,0 153.407515430710,-28.088974462696,0 153.407513611923,-28.088974365058,0 153.407511793974,-28.088974255950,0 153.407509976956,-28.088974135377,0 153.407508160961,-28.088974003346,0 153.407506346083,-28.088973859863,0 153.407504532414,-28.088973704936,0 153.407502720048,-28.088973538573,0 153.407500909075,-28.088973360782,0 153.407499099590,-28.088973171572,0 153.407497291685,-28.088972970953,0 153.407495485452,-28.088972758936,0 153.407493680983,-28.088972535530,0 153.407491878371,-28.088972300747,0 153.407490077708,-28.088972054601,0 153.407488279085,-28.088971797102,0 153.407486482596,-28.088971528264,0 153.407484688331,-28.088971248101,0 153.407482896383,-28.088970956628,0 153.407481106843,-28.088970653859,0 153.407479319802,-28.088970339809,0 153.407477535352,-28.088970014495,0 153.407475753585,-28.088969677933,0 153.407473974590,-28.088969330141,0 153.407472198460,-28.088968971136,0 153.407470425285,-28.088968600937,0 153.407468655155,-28.088968219563,0 153.407466888162,-28.088967827032,0 153.407465124394,-28.088967423366,0 153.407463363944,-28.088967008584,0 153.407461606900,-28.088966582708,0 153.407459853352,-28.088966145761,0 153.407458103391,-28.088965697763,0 153.407456357105,-28.088965238738,0 153.407454614584,-28.088964768710,0 153.407452875917,-28.088964287702,0 153.407451141192,-28.088963795739,0 153.407449410499,-28.088963292847,0 153.407447683926,-28.088962779050,0 153.407445961561,-28.088962254376,0 153.407444243493,-28.088961718851,0 153.407442529808,-28.088961172502,0 153.407440820595,-28.088960615357,0 153.407439115941,-28.088960047446,0 153.407437415934,-28.088959468796,0 153.407435720659,-28.088958879437,0 153.407434030205,-28.088958279401,0 153.407432344656,-28.088957668716,0 153.407430664100,-28.088957047415,0 153.407428988623,-28.088956415529,0 153.407427318309,-28.088955773091,0 153.407425653244,-28.088955120133,0 153.407423993514,-28.088954456688,0 153.407422339204,-28.088953782792,0 153.407420690397,-28.088953098477,0 153.407419047178,-28.088952403780,0 153.407417409632,-28.088951698735,0 153.407415777841,-28.088950983379,0 153.407414151890,-28.088950257748,0 153.407412531861,-28.088949521880,0 153.407410917838,-28.088948775811,0 153.407409309902,-28.088948019581,0 153.407407708136,-28.088947253227,0 153.407406112622,-28.088946476790,0 153.407404523442,-28.088945690307,0 153.407402940676,-28.088944893821,0 153.407401364406,-28.088944087371,0 153.407399794711,-28.088943270999,0 153.407398231674,-28.088942444747,0 153.407396675372,-28.088941608656,0 153.407395125887,-28.088940762770,0 153.407393583297,-28.088939907132,0 153.407392047680,-28.088939041785,0 153.407390519116,-28.088938166773,0 153.407388997683,-28.088937282142,0 153.407387483458,-28.088936387937,0 153.407385976519,-28.088935484203,0 153.407384476942,-28.088934570987,0 153.407382984806,-28.088933648335,0 153.407381500185,-28.088932716295,0 153.407380023155,-28.088931774914,0 153.407378553793,-28.088930824239,0 153.407377092173,-28.088929864321,0 153.407682907827,-28.088929864321,0</coordinates></LinearRing></outerBoundaryIs></Polygon></Placemark></Document></kml>