<?xml version='1.0' encoding='utf-8'?>
<kml xmlns="http://www.opengis.net/kml/2.2"><Document><name>VT 4.0.5 proposal — boundary / clearance overlap</name><description>Hypothetical boundary is 24.8 m from S0, intersecting the 25 m circle. Unchanged P3 is beyond this boundary, so neither direction is permitted. Magenta D shows hold; red route is prohibited. Original boundary is retained hidden. Yellow: proposed 25 m circle. Orange: historical 27 m circle. Blue: historical planned route. Red shade: beachward circle cap. Proposed illustration only, not flown or implemented. Horizontal ground-clamped geometry.</description>
<Style id="drone"><IconStyle><color>ff00ffff</color><scale>1.1</scale></IconStyle></Style>
<Style id="surfer"><IconStyle><color>ff00ff00</color><scale>1.1</scale></IconStyle></Style>
<Style id="waypoint"><IconStyle><color>ffff0000</color><scale>1.1</scale></IconStyle></Style>
<Style id="anchor"><IconStyle><color>ff0000ff</color><scale>1.1</scale></IconStyle></Style>
<Style id="route"><LineStyle><color>ffff0000</color><width>4</width></LineStyle></Style>
<Style id="boundary"><LineStyle><color>ff0000ff</color><width>4</width></LineStyle></Style>
<Style id="sea"><LineStyle><color>ff00ff00</color><width>3</width></LineStyle></Style>
<Style id="clearance"><LineStyle><color>ff00aaff</color><width>2</width></LineStyle></Style>
<Placemark><name>Drone — route start</name><description>Aircraft position when route saved at 22:02:55.495; not later aircraft position.</description><styleUrl>#drone</styleUrl><Point><coordinates>153.407519662373,-28.088445349299,0</coordinates></Point></Placemark>
<Placemark><name>Surfer — planning snapshot</name><description>Frozen target position used to plan this route.</description><styleUrl>#surfer</styleUrl><Point><coordinates>153.407530000000,-28.088750000000,0</coordinates></Point></Placemark>
<Placemark><name>Boundary anchor — first central capture</name><description>Boundary passes through this original aircraft central point, parallel to configured shoreline.</description><styleUrl>#anchor</styleUrl><Point><coordinates>153.407738617731,-28.088399932930,0</coordinates></Point></Placemark>
<Placemark><name>P1</name><description>Drone-to-waypoint at planning: 27.54 m; surfer-to-waypoint: 28.13 m; waypoint-to-boundary: 4.22 m on sea side.</description><styleUrl>#waypoint</styleUrl><Point><coordinates>153.407749640434,-28.088587406795,0</coordinates></Point></Placemark>
<Placemark><name>P2</name><description>Drone-to-waypoint at planning: 29.89 m; surfer-to-waypoint: 28.13 m; waypoint-to-boundary: 3.26 m on sea side.</description><styleUrl>#waypoint</styleUrl><Point><coordinates>153.407764867457,-28.088604913769,0</coordinates></Point></Placemark>
<Placemark><name>P3 — destination</name><description>Drone-to-waypoint at planning: 54.52 m; surfer-to-waypoint: 33.89 m; waypoint-to-boundary: 0.28 m on sea side.</description><styleUrl>#waypoint</styleUrl><Point><coordinates>153.407863112929,-28.088830811851,0</coordinates></Point></Placemark>
<Placemark><name>Planned route: Drone → P1 → P2 → P3</name><description>Straight planned legs. This is not the recorded flight track.</description><styleUrl>#route</styleUrl><LineString><tessellate>1</tessellate><coordinates>153.407519662373,-28.088445349299,0 153.407749640434,-28.088587406795,0 153.407764867457,-28.088604913769,0 153.407863112929,-28.088830811851,0</coordinates></LineString></Placemark>
<Placemark><name>Historical central boundary — hidden for comparison</name><description>Display spans 300 m; the boundary is conceptually an infinite line.</description><styleUrl>#boundary</styleUrl><LineString><tessellate>1</tessellate><coordinates>153.407352549534,-28.087094656490,0 153.408124685929,-28.089705209369,0</coordinates></LineString><visibility>0</visibility></Placemark>
<Placemark><name>Direction toward SEA</name><description /><styleUrl>#sea</styleUrl><LineString><tessellate>1</tessellate><coordinates>153.407738617731,-28.088399932930,0 153.407245440228,-28.088513465575,0</coordinates></LineString></Placemark>
<Placemark><name>SEA side — permitted</name><description>Seaward direction from boundary.</description><styleUrl>#surfer</styleUrl><Point><coordinates>153.407245440228,-28.088513465575,0</coordinates></Point></Placemark>
<Placemark><name>Historical 27 m clearance — original test setting</name><description>25 m retreat threshold plus 2 m extra path clearance around frozen surfer position.</description><styleUrl>#clearance</styleUrl><LineString><tessellate>1</tessellate><coordinates>153.407530000000,-28.088507183166,0 153.407544404639,-28.088507515938,0 153.407558769796,-28.088508513342,0 153.407573056097,-28.088510172645,0 153.407587224385,-28.088512489297,0 153.407601235824,-28.088515456949,0 153.407615052011,-28.088519067468,0 153.407628635076,-28.088523310957,0 153.407641947789,-28.088528175785,0 153.407654953661,-28.088533648617,0 153.407667617044,-28.088539714454,0 153.407679903228,-28.088546356668,0 153.407691778538,-28.088553557055,0 153.407703210424,-28.088561295878,0 153.407714167552,-28.088569551927,0 153.407724619890,-28.088578302570,0 153.407734538789,-28.088587523825,0 153.407743897060,-28.088597190415,0 153.407752669055,-28.088607275846,0 153.407760830729,-28.088617752474,0 153.407768359713,-28.088628591583,0 153.407775235368,-28.088639763464,0 153.407781438851,-28.088651237496,0 153.407786953158,-28.088662982229,0 153.407791763173,-28.088674965472,0 153.407795855714,-28.088687154379,0 153.407799219563,-28.088699515542,0 153.407801845500,-28.088712015079,0 153.407803726327,-28.088724618730,0 153.407804856890,-28.088737291949,0 153.407805234088,-28.088750000000,0 153.407804856890,-28.088762708051,0 153.407803726327,-28.088775381270,0 153.407801845500,-28.088787984921,0 153.407799219563,-28.088800484458,0 153.407795855714,-28.088812845621,0 153.407791763173,-28.088825034528,0 153.407786953158,-28.088837017771,0 153.407781438851,-28.088848762504,0 153.407775235368,-28.088860236536,0 153.407768359713,-28.088871408417,0 153.407760830729,-28.088882247526,0 153.407752669055,-28.088892724154,0 153.407743897060,-28.088902809585,0 153.407734538789,-28.088912476175,0 153.407724619890,-28.088921697430,0 153.407714167552,-28.088930448073,0 153.407703210424,-28.088938704122,0 153.407691778538,-28.088946442945,0 153.407679903228,-28.088953643332,0 153.407667617044,-28.088960285546,0 153.407654953661,-28.088966351383,0 153.407641947789,-28.088971824215,0 153.407628635076,-28.088976689043,0 153.407615052011,-28.088980932532,0 153.407601235824,-28.088984543051,0 153.407587224385,-28.088987510703,0 153.407573056097,-28.088989827355,0 153.407558769796,-28.088991486658,0 153.407544404639,-28.088992484062,0 153.407530000000,-28.088992816834,0 153.407515595361,-28.088992484062,0 153.407501230204,-28.088991486658,0 153.407486943903,-28.088989827355,0 153.407472775615,-28.088987510703,0 153.407458764176,-28.088984543051,0 153.407444947989,-28.088980932532,0 153.407431364924,-28.088976689043,0 153.407418052211,-28.088971824215,0 153.407405046339,-28.088966351383,0 153.407392382956,-28.088960285546,0 153.407380096772,-28.088953643332,0 153.407368221462,-28.088946442945,0 153.407356789576,-28.088938704122,0 153.407345832448,-28.088930448073,0 153.407335380110,-28.088921697430,0 153.407325461211,-28.088912476175,0 153.407316102940,-28.088902809585,0 153.407307330945,-28.088892724154,0 153.407299169271,-28.088882247526,0 153.407291640287,-28.088871408417,0 153.407284764632,-28.088860236536,0 153.407278561149,-28.088848762504,0 153.407273046842,-28.088837017771,0 153.407268236827,-28.088825034528,0 153.407264144286,-28.088812845621,0 153.407260780437,-28.088800484458,0 153.407258154500,-28.088787984921,0 153.407256273673,-28.088775381270,0 153.407255143110,-28.088762708051,0 153.407254765912,-28.088750000000,0 153.407255143110,-28.088737291949,0 153.407256273673,-28.088724618730,0 153.407258154500,-28.088712015079,0 153.407260780437,-28.088699515542,0 153.407264144286,-28.088687154379,0 153.407268236827,-28.088674965472,0 153.407273046842,-28.088662982229,0 153.407278561149,-28.088651237496,0 153.407284764632,-28.088639763464,0 153.407291640287,-28.088628591583,0 153.407299169271,-28.088617752474,0 153.407307330945,-28.088607275846,0 153.407316102940,-28.088597190415,0 153.407325461211,-28.088587523825,0 153.407335380110,-28.088578302570,0 153.407345832448,-28.088569551927,0 153.407356789576,-28.088561295878,0 153.407368221462,-28.088553557055,0 153.407380096772,-28.088546356668,0 153.407392382956,-28.088539714454,0 153.407405046339,-28.088533648617,0 153.407418052211,-28.088528175785,0 153.407431364924,-28.088523310957,0 153.407444947989,-28.088519067468,0 153.407458764176,-28.088515456949,0 153.407472775615,-28.088512489297,0 153.407486943903,-28.088510172645,0 153.407501230204,-28.088508513342,0 153.407515595361,-28.088507515938,0 153.407530000000,-28.088507183166,0</coordinates></LineString></Placemark>
<Style id="proposedRecovery"><LineStyle><color>ffff00ff</color><width>5</width></LineStyle><IconStyle><color>ffff00ff</color></IconStyle></Style><Style id="noBuffer"><LineStyle><color>ff00ffff</color><width>2</width></LineStyle><IconStyle><color>ff00ffff</color></IconStyle></Style><Placemark><name>25 m clearance — proposed zero extra buffer</name><description>Proposed assumption: 25 m retreat threshold + 0 m extra path clearance. Centred on captured S0.</description><styleUrl>#noBuffer</styleUrl><LineString><tessellate>1</tessellate><coordinates>153.407530000000,-28.088525169599,0 153.407543337629,-28.088525477721,0 153.407556638700,-28.088526401243,0 153.407569866757,-28.088527937634,0 153.407582985541,-28.088530082682,0 153.407595959096,-28.088532830509,0 153.407608751862,-28.088536173582,0 153.407621328774,-28.088540102738,0 153.407633655360,-28.088544607208,0 153.407645697835,-28.088549674645,0 153.407657423189,-28.088555291161,0 153.407668799285,-28.088561441360,0 153.407679794943,-28.088568108384,0 153.407690380022,-28.088575273961,0 153.407700525512,-28.088582918451,0 153.407710203602,-28.088591020898,0 153.407719387767,-28.088599559097,0 153.407728052834,-28.088608509644,0 153.407736175051,-28.088617848006,0 153.407743732157,-28.088627548587,0 153.407750703438,-28.088637584799,0 153.407757069786,-28.088647929134,0 153.407762813751,-28.088658553237,0 153.407767919590,-28.088669427990,0 153.407772373309,-28.088680523585,0 153.407776162698,-28.088691809610,0 153.407779277373,-28.088703255131,0 153.407781708796,-28.088714828776,0 153.407783450303,-28.088726498824,0 153.407784497120,-28.088738233286,0 153.407784846378,-28.088750000000,0 153.407784497120,-28.088761766714,0 153.407783450303,-28.088773501176,0 153.407781708796,-28.088785171224,0 153.407779277373,-28.088796744869,0 153.407776162698,-28.088808190390,0 153.407772373309,-28.088819476415,0 153.407767919590,-28.088830572010,0 153.407762813751,-28.088841446763,0 153.407757069786,-28.088852070866,0 153.407750703438,-28.088862415201,0 153.407743732157,-28.088872451413,0 153.407736175051,-28.088882151994,0 153.407728052834,-28.088891490356,0 153.407719387767,-28.088900440903,0 153.407710203602,-28.088908979102,0 153.407700525512,-28.088917081549,0 153.407690380022,-28.088924726039,0 153.407679794943,-28.088931891616,0 153.407668799285,-28.088938558640,0 153.407657423189,-28.088944708839,0 153.407645697835,-28.088950325355,0 153.407633655360,-28.088955392792,0 153.407621328774,-28.088959897262,0 153.407608751862,-28.088963826418,0 153.407595959096,-28.088967169491,0 153.407582985541,-28.088969917318,0 153.407569866757,-28.088972062366,0 153.407556638700,-28.088973598757,0 153.407543337629,-28.088974522279,0 153.407530000000,-28.088974830401,0 153.407516662371,-28.088974522279,0 153.407503361300,-28.088973598757,0 153.407490133243,-28.088972062366,0 153.407477014459,-28.088969917318,0 153.407464040904,-28.088967169491,0 153.407451248138,-28.088963826418,0 153.407438671226,-28.088959897262,0 153.407426344640,-28.088955392792,0 153.407414302165,-28.088950325355,0 153.407402576811,-28.088944708839,0 153.407391200715,-28.088938558640,0 153.407380205057,-28.088931891616,0 153.407369619978,-28.088924726039,0 153.407359474488,-28.088917081549,0 153.407349796398,-28.088908979102,0 153.407340612233,-28.088900440903,0 153.407331947166,-28.088891490356,0 153.407323824949,-28.088882151994,0 153.407316267843,-28.088872451413,0 153.407309296562,-28.088862415201,0 153.407302930214,-28.088852070866,0 153.407297186249,-28.088841446763,0 153.407292080410,-28.088830572010,0 153.407287626691,-28.088819476415,0 153.407283837302,-28.088808190390,0 153.407280722627,-28.088796744869,0 153.407278291204,-28.088785171224,0 153.407276549697,-28.088773501176,0 153.407275502880,-28.088761766714,0 153.407275153622,-28.088750000000,0 153.407275502880,-28.088738233286,0 153.407276549697,-28.088726498824,0 153.407278291204,-28.088714828776,0 153.407280722627,-28.088703255131,0 153.407283837302,-28.088691809610,0 153.407287626691,-28.088680523585,0 153.407292080410,-28.088669427990,0 153.407297186249,-28.088658553237,0 153.407302930214,-28.088647929134,0 153.407309296562,-28.088637584799,0 153.407316267843,-28.088627548587,0 153.407323824949,-28.088617848006,0 153.407331947166,-28.088608509644,0 153.407340612233,-28.088599559097,0 153.407349796398,-28.088591020898,0 153.407359474488,-28.088582918451,0 153.407369619978,-28.088575273961,0 153.407380205057,-28.088568108384,0 153.407391200715,-28.088561441360,0 153.407402576811,-28.088555291161,0 153.407414302165,-28.088549674645,0 153.407426344640,-28.088544607208,0 153.407438671226,-28.088540102738,0 153.407451248138,-28.088536173582,0 153.407464040904,-28.088532830509,0 153.407477014459,-28.088530082682,0 153.407490133243,-28.088527937634,0 153.407503361300,-28.088526401243,0 153.407516662371,-28.088525477721,0 153.407530000000,-28.088525169599,0</coordinates></LineString></Placemark><Placemark><name>D — actual reported stop position, 22:03:00.831</name><description>27.163 m from S0. D to P1 minimum clearance 26.955 m: passes the proposed 25 m rule.</description><styleUrl>#drone</styleUrl><Point><coordinates>153.407652700918,-28.088531011123,0</coordinates></Point></Placemark><Placemark><name>RED: hypothetical boundary 24.8 m from S0</name><description>Assumed boundary for overlap scenario, parallel to original shoreline; not the recorded boundary.</description><styleUrl>#boundary</styleUrl><LineString><tessellate>1</tessellate><coordinates>153.408160686296,-28.089998964247,0 153.407388547383,-28.087388411368,0</coordinates></LineString></Placemark><Placemark><name>RED: original continuation is prohibited with assumed boundary</name><description>P3 is beachward of the hypothetical boundary. No clockwise or anticlockwise route can reach unchanged P3. Red line is a prohibited illustration, not a proposed movement. [{'leg': 'D → P1', 'minimum_S0_clearance_m': 26.95480448260489, 'minimum_boundary_seaward_m': -0.6130840627323657}, {'leg': 'P1 → P2', 'minimum_S0_clearance_m': 28.100000015797505, 'minimum_boundary_seaward_m': -1.5669245765973185}, {'leg': 'P2 → P3', 'minimum_S0_clearance_m': 27.290232178087717, 'minimum_boundary_seaward_m': -4.55028791456726}]</description><styleUrl>#boundary</styleUrl><LineString><tessellate>1</tessellate><coordinates>153.407652700918,-28.088531011123,0 153.407749640434,-28.088587406795,0 153.407764867457,-28.088604913769,0 153.407863112929,-28.088830811851,0</coordinates></LineString></Placemark><Placemark><name>MAGENTA: 4.0.5 holds at D — P3 blocked</name><description>P3 is 4.550 m beachward of the hypothetical boundary. Hold and aim; log destination_central_boundary. No positioning route starts.</description><styleUrl>#proposedRecovery</styleUrl><Point><coordinates>153.407652700918,-28.088531011123,0</coordinates></Point></Placemark><Placemark><name>Boundary / 25 m circle intersection 1</name><description>The hypothetical central boundary cuts through the proposed 25 m clearance circle. The route must satisfy both constraints.</description><styleUrl>#anchor</styleUrl><Point><coordinates>153.407782739604,-28.088721150361,0</coordinates></Point></Placemark><Placemark><name>Boundary / 25 m circle intersection 2</name><description>The hypothetical central boundary cuts through the proposed 25 m clearance circle. The route must satisfy both constraints.</description><styleUrl>#anchor</styleUrl><Point><coordinates>153.407766494075,-28.088666225255,0</coordinates></Point></Placemark><Style id="overlapArea"><PolyStyle><color>660000ff</color></PolyStyle><LineStyle><color>ff0000ff</color></LineStyle></Style><Placemark><name>RED SHADE: circle portion beachward of boundary</name><description>Hypothetical boundary moved to 24.8 m from S0 to demonstrate overlap. Both this cap and the rest of the 25 m circle are excluded from ordinary positioning.</description><styleUrl>#overlapArea</styleUrl><Polygon><tessellate>1</tessellate><outerBoundaryIs><LinearRing><coordinates>153.407766494075,-28.088666225255,0 153.407766627391,-28.088666518767,0 153.407766760239,-28.088666812445,0 153.407766892619,-28.088667106287,0 153.407767024530,-28.088667400293,0 153.407767155973,-28.088667694463,0 153.407767286946,-28.088667988795,0 153.407767417450,-28.088668283290,0 153.407767547484,-28.088668577946,0 153.407767677049,-28.088668872763,0 153.407767806143,-28.088669167741,0 153.407767934767,-28.088669462879,0 153.407768062921,-28.088669758176,0 153.407768190603,-28.088670053631,0 153.407768317814,-28.088670349245,0 153.407768444554,-28.088670645016,0 153.407768570823,-28.088670940945,0 153.407768696619,-28.088671237029,0 153.407768821944,-28.088671533270,0 153.407768946796,-28.088671829665,0 153.407769071175,-28.088672126216,0 153.407769195082,-28.088672422920,0 153.407769318515,-28.088672719778,0 153.407769441475,-28.088673016788,0 153.407769563961,-28.088673313951,0 153.407769685974,-28.088673611266,0 153.407769807512,-28.088673908731,0 153.407769928577,-28.088674206347,0 153.407770049166,-28.088674504114,0 153.407770169281,-28.088674802029,0 153.407770288921,-28.088675100093,0 153.407770408085,-28.088675398305,0 153.407770526774,-28.088675696665,0 153.407770644987,-28.088675995172,0 153.407770762725,-28.088676293825,0 153.407770879986,-28.088676592624,0 153.407770996770,-28.088676891568,0 153.407771113078,-28.088677190657,0 153.407771228909,-28.088677489890,0 153.407771344263,-28.088677789266,0 153.407771459139,-28.088678088785,0 153.407771573538,-28.088678388446,0 153.407771687459,-28.088678688249,0 153.407771800902,-28.088678988193,0 153.407771913867,-28.088679288277,0 153.407772026353,-28.088679588502,0 153.407772138361,-28.088679888865,0 153.407772249889,-28.088680189367,0 153.407772360939,-28.088680490008,0 153.407772471509,-28.088680790786,0 153.407772581599,-28.088681091700,0 153.407772691210,-28.088681392751,0 153.407772800341,-28.088681693938,0 153.407772908991,-28.088681995260,0 153.407773017161,-28.088682296716,0 153.407773124850,-28.088682598306,0 153.407773232058,-28.088682900030,0 153.407773338786,-28.088683201886,0 153.407773445032,-28.088683503874,0 153.407773550796,-28.088683805994,0 153.407773656079,-28.088684108245,0 153.407773760879,-28.088684410626,0 153.407773865198,-28.088684713137,0 153.407773969034,-28.088685015777,0 153.407774072388,-28.088685318546,0 153.407774175259,-28.088685621442,0 153.407774277647,-28.088685924466,0 153.407774379552,-28.088686227616,0 153.407774480973,-28.088686530893,0 153.407774581911,-28.088686834295,0 153.407774682365,-28.088687137823,0 153.407774782335,-28.088687441474,0 153.407774881821,-28.088687745249,0 153.407774980823,-28.088688049148,0 153.407775079340,-28.088688353169,0 153.407775177372,-28.088688657312,0 153.407775274919,-28.088688961576,0 153.407775371981,-28.088689265961,0 153.407775468558,-28.088689570466,0 153.407775564650,-28.088689875090,0 153.407775660255,-28.088690179834,0 153.407775755375,-28.088690484696,0 153.407775850009,-28.088690789675,0 153.407775944156,-28.088691094772,0 153.407776037817,-28.088691399985,0 153.407776130991,-28.088691705314,0 153.407776223678,-28.088692010759,0 153.407776315879,-28.088692316318,0 153.407776407592,-28.088692621991,0 153.407776498818,-28.088692927777,0 153.407776589556,-28.088693233677,0 153.407776679806,-28.088693539689,0 153.407776769569,-28.088693845812,0 153.407776858843,-28.088694152047,0 153.407776947630,-28.088694458392,0 153.407777035927,-28.088694764847,0 153.407777123737,-28.088695071411,0 153.407777211057,-28.088695378084,0 153.407777297888,-28.088695684865,0 153.407777384230,-28.088695991753,0 153.407777470083,-28.088696298748,0 153.407777555447,-28.088696605849,0 153.407777640320,-28.088696913056,0 153.407777724704,-28.088697220368,0 153.407777808598,-28.088697527785,0 153.407777892002,-28.088697835305,0 153.407777974916,-28.088698142928,0 153.407778057339,-28.088698450654,0 153.407778139271,-28.088698758482,0 153.407778220713,-28.088699066411,0 153.407778301663,-28.088699374441,0 153.407778382123,-28.088699682571,0 153.407778462091,-28.088699990800,0 153.407778541567,-28.088700299129,0 153.407778620553,-28.088700607556,0 153.407778699046,-28.088700916080,0 153.407778777047,-28.088701224702,0 153.407778854557,-28.088701533420,0 153.407778931574,-28.088701842234,0 153.407779008099,-28.088702151143,0 153.407779084131,-28.088702460147,0 153.407779159671,-28.088702769245,0 153.407779234717,-28.088703078436,0 153.407779309271,-28.088703387720,0 153.407779383332,-28.088703697096,0 153.407779456899,-28.088704006564,0 153.407779529973,-28.088704316123,0 153.407779602554,-28.088704625772,0 153.407779674640,-28.088704935511,0 153.407779746233,-28.088705245339,0 153.407779817332,-28.088705555256,0 153.407779887937,-28.088705865260,0 153.407779958047,-28.088706175352,0 153.407780027664,-28.088706485531,0 153.407780096785,-28.088706795795,0 153.407780165412,-28.088707106145,0 153.407780233544,-28.088707416580,0 153.407780301181,-28.088707727099,0 153.407780368323,-28.088708037702,0 153.407780434970,-28.088708348388,0 153.407780501122,-28.088708659156,0 153.407780566778,-28.088708970005,0 153.407780631938,-28.088709280936,0 153.407780696603,-28.088709591948,0 153.407780760771,-28.088709903039,0 153.407780824444,-28.088710214210,0 153.407780887621,-28.088710525460,0 153.407780950301,-28.088710836787,0 153.407781012485,-28.088711148192,0 153.407781074173,-28.088711459674,0 153.407781135364,-28.088711771232,0 153.407781196058,-28.088712082866,0 153.407781256256,-28.088712394575,0 153.407781315956,-28.088712706358,0 153.407781375159,-28.088713018215,0 153.407781433865,-28.088713330145,0 153.407781492074,-28.088713642147,0 153.407781549786,-28.088713954222,0 153.407781606999,-28.088714266367,0 153.407781663716,-28.088714578584,0 153.407781719934,-28.088714890870,0 153.407781775654,-28.088715203226,0 153.407781830877,-28.088715515651,0 153.407781885601,-28.088715828144,0 153.407781939827,-28.088716140704,0 153.407781993555,-28.088716453332,0 153.407782046785,-28.088716766026,0 153.407782099515,-28.088717078785,0 153.407782151748,-28.088717391610,0 153.407782203481,-28.088717704499,0 153.407782254716,-28.088718017453,0 153.407782305451,-28.088718330469,0 153.407782355688,-28.088718643548,0 153.407782405426,-28.088718956689,0 153.407782454664,-28.088719269891,0 153.407782503403,-28.088719583155,0 153.407782551642,-28.088719896478,0 153.407782599382,-28.088720209861,0 153.407782646622,-28.088720523303,0 153.407782693363,-28.088720836803,0 153.407782739604,-28.088721150361,0 153.407766494075,-28.088666225255,0</coordinates></LinearRing></outerBoundaryIs></Polygon></Placemark></Document></kml>