<?xml version='1.0' encoding='utf-8'?>
<kml xmlns="http://www.opengis.net/kml/2.2"><Document><name>VT route 22:02:55 — angle -30 degrees</name><description>5 October 2026 Brisbane time. Frozen planning snapshot, not actual flown track. Altitudes clamped to ground; horizontal geometry only. Overlay: zero extra buffer, yellow 25 m circle and permitted D–P1 connector; magenta optional recovery illustration, not a recorded or implemented route. Original blue route and historical 27 m circle retained.</description>
<Style id="drone"><IconStyle><color>ff00ffff</color><scale>1.1</scale></IconStyle></Style>
<Style id="surfer"><IconStyle><color>ff00ff00</color><scale>1.1</scale></IconStyle></Style>
<Style id="waypoint"><IconStyle><color>ffff0000</color><scale>1.1</scale></IconStyle></Style>
<Style id="anchor"><IconStyle><color>ff0000ff</color><scale>1.1</scale></IconStyle></Style>
<Style id="route"><LineStyle><color>ffff0000</color><width>4</width></LineStyle></Style>
<Style id="boundary"><LineStyle><color>ff0000ff</color><width>4</width></LineStyle></Style>
<Style id="sea"><LineStyle><color>ff00ff00</color><width>3</width></LineStyle></Style>
<Style id="clearance"><LineStyle><color>ff00aaff</color><width>2</width></LineStyle></Style>
<Placemark><name>Drone — route start</name><description>Aircraft position when route saved at 22:02:55.495; not later aircraft position.</description><styleUrl>#drone</styleUrl><Point><coordinates>153.407519662373,-28.088445349299,0</coordinates></Point></Placemark>
<Placemark><name>Surfer — planning snapshot</name><description>Frozen target position used to plan this route.</description><styleUrl>#surfer</styleUrl><Point><coordinates>153.407530000000,-28.088750000000,0</coordinates></Point></Placemark>
<Placemark><name>Boundary anchor — first central capture</name><description>Boundary passes through this original aircraft central point, parallel to configured shoreline.</description><styleUrl>#anchor</styleUrl><Point><coordinates>153.407738617731,-28.088399932930,0</coordinates></Point></Placemark>
<Placemark><name>P1</name><description>Drone-to-waypoint at planning: 27.54 m; surfer-to-waypoint: 28.13 m; waypoint-to-boundary: 4.22 m on sea side.</description><styleUrl>#waypoint</styleUrl><Point><coordinates>153.407749640434,-28.088587406795,0</coordinates></Point></Placemark>
<Placemark><name>P2</name><description>Drone-to-waypoint at planning: 29.89 m; surfer-to-waypoint: 28.13 m; waypoint-to-boundary: 3.26 m on sea side.</description><styleUrl>#waypoint</styleUrl><Point><coordinates>153.407764867457,-28.088604913769,0</coordinates></Point></Placemark>
<Placemark><name>P3 — destination</name><description>Drone-to-waypoint at planning: 54.52 m; surfer-to-waypoint: 33.89 m; waypoint-to-boundary: 0.28 m on sea side.</description><styleUrl>#waypoint</styleUrl><Point><coordinates>153.407863112929,-28.088830811851,0</coordinates></Point></Placemark>
<Placemark><name>Planned route: Drone → P1 → P2 → P3</name><description>Straight planned legs. This is not the recorded flight track.</description><styleUrl>#route</styleUrl><LineString><tessellate>1</tessellate><coordinates>153.407519662373,-28.088445349299,0 153.407749640434,-28.088587406795,0 153.407764867457,-28.088604913769,0 153.407863112929,-28.088830811851,0</coordinates></LineString></Placemark>
<Placemark><name>Central boundary — beachward crossing prohibited</name><description>Display spans 300 m; the boundary is conceptually an infinite line.</description><styleUrl>#boundary</styleUrl><LineString><tessellate>1</tessellate><coordinates>153.407352549534,-28.087094656490,0 153.408124685929,-28.089705209369,0</coordinates></LineString></Placemark>
<Placemark><name>Direction toward SEA</name><description /><styleUrl>#sea</styleUrl><LineString><tessellate>1</tessellate><coordinates>153.407738617731,-28.088399932930,0 153.407245440228,-28.088513465575,0</coordinates></LineString></Placemark>
<Placemark><name>SEA side — permitted</name><description>Seaward direction from boundary.</description><styleUrl>#surfer</styleUrl><Point><coordinates>153.407245440228,-28.088513465575,0</coordinates></Point></Placemark>
<Placemark><name>Historical 27 m clearance — original test setting</name><description>25 m retreat threshold plus 2 m extra path clearance around frozen surfer position.</description><styleUrl>#clearance</styleUrl><LineString><tessellate>1</tessellate><coordinates>153.407530000000,-28.088507183166,0 153.407544404639,-28.088507515938,0 153.407558769796,-28.088508513342,0 153.407573056097,-28.088510172645,0 153.407587224385,-28.088512489297,0 153.407601235824,-28.088515456949,0 153.407615052011,-28.088519067468,0 153.407628635076,-28.088523310957,0 153.407641947789,-28.088528175785,0 153.407654953661,-28.088533648617,0 153.407667617044,-28.088539714454,0 153.407679903228,-28.088546356668,0 153.407691778538,-28.088553557055,0 153.407703210424,-28.088561295878,0 153.407714167552,-28.088569551927,0 153.407724619890,-28.088578302570,0 153.407734538789,-28.088587523825,0 153.407743897060,-28.088597190415,0 153.407752669055,-28.088607275846,0 153.407760830729,-28.088617752474,0 153.407768359713,-28.088628591583,0 153.407775235368,-28.088639763464,0 153.407781438851,-28.088651237496,0 153.407786953158,-28.088662982229,0 153.407791763173,-28.088674965472,0 153.407795855714,-28.088687154379,0 153.407799219563,-28.088699515542,0 153.407801845500,-28.088712015079,0 153.407803726327,-28.088724618730,0 153.407804856890,-28.088737291949,0 153.407805234088,-28.088750000000,0 153.407804856890,-28.088762708051,0 153.407803726327,-28.088775381270,0 153.407801845500,-28.088787984921,0 153.407799219563,-28.088800484458,0 153.407795855714,-28.088812845621,0 153.407791763173,-28.088825034528,0 153.407786953158,-28.088837017771,0 153.407781438851,-28.088848762504,0 153.407775235368,-28.088860236536,0 153.407768359713,-28.088871408417,0 153.407760830729,-28.088882247526,0 153.407752669055,-28.088892724154,0 153.407743897060,-28.088902809585,0 153.407734538789,-28.088912476175,0 153.407724619890,-28.088921697430,0 153.407714167552,-28.088930448073,0 153.407703210424,-28.088938704122,0 153.407691778538,-28.088946442945,0 153.407679903228,-28.088953643332,0 153.407667617044,-28.088960285546,0 153.407654953661,-28.088966351383,0 153.407641947789,-28.088971824215,0 153.407628635076,-28.088976689043,0 153.407615052011,-28.088980932532,0 153.407601235824,-28.088984543051,0 153.407587224385,-28.088987510703,0 153.407573056097,-28.088989827355,0 153.407558769796,-28.088991486658,0 153.407544404639,-28.088992484062,0 153.407530000000,-28.088992816834,0 153.407515595361,-28.088992484062,0 153.407501230204,-28.088991486658,0 153.407486943903,-28.088989827355,0 153.407472775615,-28.088987510703,0 153.407458764176,-28.088984543051,0 153.407444947989,-28.088980932532,0 153.407431364924,-28.088976689043,0 153.407418052211,-28.088971824215,0 153.407405046339,-28.088966351383,0 153.407392382956,-28.088960285546,0 153.407380096772,-28.088953643332,0 153.407368221462,-28.088946442945,0 153.407356789576,-28.088938704122,0 153.407345832448,-28.088930448073,0 153.407335380110,-28.088921697430,0 153.407325461211,-28.088912476175,0 153.407316102940,-28.088902809585,0 153.407307330945,-28.088892724154,0 153.407299169271,-28.088882247526,0 153.407291640287,-28.088871408417,0 153.407284764632,-28.088860236536,0 153.407278561149,-28.088848762504,0 153.407273046842,-28.088837017771,0 153.407268236827,-28.088825034528,0 153.407264144286,-28.088812845621,0 153.407260780437,-28.088800484458,0 153.407258154500,-28.088787984921,0 153.407256273673,-28.088775381270,0 153.407255143110,-28.088762708051,0 153.407254765912,-28.088750000000,0 153.407255143110,-28.088737291949,0 153.407256273673,-28.088724618730,0 153.407258154500,-28.088712015079,0 153.407260780437,-28.088699515542,0 153.407264144286,-28.088687154379,0 153.407268236827,-28.088674965472,0 153.407273046842,-28.088662982229,0 153.407278561149,-28.088651237496,0 153.407284764632,-28.088639763464,0 153.407291640287,-28.088628591583,0 153.407299169271,-28.088617752474,0 153.407307330945,-28.088607275846,0 153.407316102940,-28.088597190415,0 153.407325461211,-28.088587523825,0 153.407335380110,-28.088578302570,0 153.407345832448,-28.088569551927,0 153.407356789576,-28.088561295878,0 153.407368221462,-28.088553557055,0 153.407380096772,-28.088546356668,0 153.407392382956,-28.088539714454,0 153.407405046339,-28.088533648617,0 153.407418052211,-28.088528175785,0 153.407431364924,-28.088523310957,0 153.407444947989,-28.088519067468,0 153.407458764176,-28.088515456949,0 153.407472775615,-28.088512489297,0 153.407486943903,-28.088510172645,0 153.407501230204,-28.088508513342,0 153.407515595361,-28.088507515938,0 153.407530000000,-28.088507183166,0</coordinates></LineString></Placemark>
<Style id="proposedRecovery"><LineStyle><color>ffff00ff</color><width>5</width></LineStyle><IconStyle><color>ffff00ff</color></IconStyle></Style><Style id="noBuffer"><LineStyle><color>ff00ffff</color><width>2</width></LineStyle><IconStyle><color>ff00ffff</color></IconStyle></Style><Placemark><name>25 m clearance — proposed zero extra buffer</name><description>Proposed assumption: 25 m retreat threshold + 0 m extra path clearance. Centred on captured S0.</description><styleUrl>#noBuffer</styleUrl><LineString><tessellate>1</tessellate><coordinates>153.407530000000,-28.088525169599,0 153.407543337629,-28.088525477721,0 153.407556638700,-28.088526401243,0 153.407569866757,-28.088527937634,0 153.407582985541,-28.088530082682,0 153.407595959096,-28.088532830509,0 153.407608751862,-28.088536173582,0 153.407621328774,-28.088540102738,0 153.407633655360,-28.088544607208,0 153.407645697835,-28.088549674645,0 153.407657423189,-28.088555291161,0 153.407668799285,-28.088561441360,0 153.407679794943,-28.088568108384,0 153.407690380022,-28.088575273961,0 153.407700525512,-28.088582918451,0 153.407710203602,-28.088591020898,0 153.407719387767,-28.088599559097,0 153.407728052834,-28.088608509644,0 153.407736175051,-28.088617848006,0 153.407743732157,-28.088627548587,0 153.407750703438,-28.088637584799,0 153.407757069786,-28.088647929134,0 153.407762813751,-28.088658553237,0 153.407767919590,-28.088669427990,0 153.407772373309,-28.088680523585,0 153.407776162698,-28.088691809610,0 153.407779277373,-28.088703255131,0 153.407781708796,-28.088714828776,0 153.407783450303,-28.088726498824,0 153.407784497120,-28.088738233286,0 153.407784846378,-28.088750000000,0 153.407784497120,-28.088761766714,0 153.407783450303,-28.088773501176,0 153.407781708796,-28.088785171224,0 153.407779277373,-28.088796744869,0 153.407776162698,-28.088808190390,0 153.407772373309,-28.088819476415,0 153.407767919590,-28.088830572010,0 153.407762813751,-28.088841446763,0 153.407757069786,-28.088852070866,0 153.407750703438,-28.088862415201,0 153.407743732157,-28.088872451413,0 153.407736175051,-28.088882151994,0 153.407728052834,-28.088891490356,0 153.407719387767,-28.088900440903,0 153.407710203602,-28.088908979102,0 153.407700525512,-28.088917081549,0 153.407690380022,-28.088924726039,0 153.407679794943,-28.088931891616,0 153.407668799285,-28.088938558640,0 153.407657423189,-28.088944708839,0 153.407645697835,-28.088950325355,0 153.407633655360,-28.088955392792,0 153.407621328774,-28.088959897262,0 153.407608751862,-28.088963826418,0 153.407595959096,-28.088967169491,0 153.407582985541,-28.088969917318,0 153.407569866757,-28.088972062366,0 153.407556638700,-28.088973598757,0 153.407543337629,-28.088974522279,0 153.407530000000,-28.088974830401,0 153.407516662371,-28.088974522279,0 153.407503361300,-28.088973598757,0 153.407490133243,-28.088972062366,0 153.407477014459,-28.088969917318,0 153.407464040904,-28.088967169491,0 153.407451248138,-28.088963826418,0 153.407438671226,-28.088959897262,0 153.407426344640,-28.088955392792,0 153.407414302165,-28.088950325355,0 153.407402576811,-28.088944708839,0 153.407391200715,-28.088938558640,0 153.407380205057,-28.088931891616,0 153.407369619978,-28.088924726039,0 153.407359474488,-28.088917081549,0 153.407349796398,-28.088908979102,0 153.407340612233,-28.088900440903,0 153.407331947166,-28.088891490356,0 153.407323824949,-28.088882151994,0 153.407316267843,-28.088872451413,0 153.407309296562,-28.088862415201,0 153.407302930214,-28.088852070866,0 153.407297186249,-28.088841446763,0 153.407292080410,-28.088830572010,0 153.407287626691,-28.088819476415,0 153.407283837302,-28.088808190390,0 153.407280722627,-28.088796744869,0 153.407278291204,-28.088785171224,0 153.407276549697,-28.088773501176,0 153.407275502880,-28.088761766714,0 153.407275153622,-28.088750000000,0 153.407275502880,-28.088738233286,0 153.407276549697,-28.088726498824,0 153.407278291204,-28.088714828776,0 153.407280722627,-28.088703255131,0 153.407283837302,-28.088691809610,0 153.407287626691,-28.088680523585,0 153.407292080410,-28.088669427990,0 153.407297186249,-28.088658553237,0 153.407302930214,-28.088647929134,0 153.407309296562,-28.088637584799,0 153.407316267843,-28.088627548587,0 153.407323824949,-28.088617848006,0 153.407331947166,-28.088608509644,0 153.407340612233,-28.088599559097,0 153.407349796398,-28.088591020898,0 153.407359474488,-28.088582918451,0 153.407369619978,-28.088575273961,0 153.407380205057,-28.088568108384,0 153.407391200715,-28.088561441360,0 153.407402576811,-28.088555291161,0 153.407414302165,-28.088549674645,0 153.407426344640,-28.088544607208,0 153.407438671226,-28.088540102738,0 153.407451248138,-28.088536173582,0 153.407464040904,-28.088532830509,0 153.407477014459,-28.088530082682,0 153.407490133243,-28.088527937634,0 153.407503361300,-28.088526401243,0 153.407516662371,-28.088525477721,0 153.407530000000,-28.088525169599,0</coordinates></LineString></Placemark><Placemark><name>D — actual reported stop position, 22:03:00.831</name><description>27.163 m from S0. D to P1 minimum clearance 26.955 m: passes the proposed 25 m rule.</description><styleUrl>#drone</styleUrl><Point><coordinates>153.407652700918,-28.088531011123,0</coordinates></Point></Placemark><Placemark><name>R — illustrative recovery waypoint</name><description>Radially outward from D to the existing P1 ring radius of 28.127 m. Illustration only; this extra leg is not necessary at a 25 m minimum.</description><styleUrl>#proposedRecovery</styleUrl><Point><coordinates>153.407657054523,-28.088523241083,0</coordinates></Point></Placemark><Placemark><name>MAGENTA: illustrative extra leg D → R</name><description>Only increases distance from S0. Length 0.964 m; minimum clearance 27.163 m. Not flown.</description><styleUrl>#proposedRecovery</styleUrl><LineString><tessellate>1</tessellate><coordinates>153.407652700918,-28.088531011123,0 153.407657054523,-28.088523241083,0</coordinates></LineString></Placemark><Placemark><name>MAGENTA: reconnect R → P1</name><description>Minimum S0 clearance 27.528 m. Then follow the original blue P1 → P2 → P3 route. Not flown.</description><styleUrl>#proposedRecovery</styleUrl><LineString><tessellate>1</tessellate><coordinates>153.407657054523,-28.088523241083,0 153.407749640434,-28.088587406795,0</coordinates></LineString></Placemark><Placemark><name>YELLOW: D → P1 already allowed without 2 m buffer</name><description>Minimum clearance 26.955 m exceeds 25 m. Therefore this recorded stop would no longer require an extra leg under the proposed rule.</description><styleUrl>#noBuffer</styleUrl><LineString><tessellate>1</tessellate><coordinates>153.407652700918,-28.088531011123,0 153.407749640434,-28.088587406795,0</coordinates></LineString></Placemark></Document></kml>